PropertyID,VendorID,Address,Size_sf,Available_sf,QuartersTrackedInDatabase,EstimatedCompletionYearQuarter,YearQuarterGroundBroken,BuildingStatusCode,SubPropertyType,buildingName,complex,Latitude,Longitude,CeilingHeight,MarketCode,BuildingStage,,,,,,,,
1652916003,2,"5640 Eden Rd  Kennedale, TX 76060",10000,0,1,2024.3,2024.1,UC,W,,,32.632815,-97.198121,0,FORTWO,0,,,,,,,,
1652901399,2,"1801 N Masch Branch Rd  Denton, TX 76207",43680,43680,5,2024.2,2023.2,UC,W,BUILDING 3,M380 BUSINESS PARK,33.234917,-97.197974,0,DALLAS,0,,,,,,,,
1652907044,2,"765 E GA 16 Highway   Newnan, GA 30263",271111,271111,2,2024.3,2023.3,UC,W,--streetnum is: 765-775 to   | building name is COWETA COMMERCE CENTER,,33.332142,-84.756489,32,ATLANT,0,,,,,,,,
1652887791,2,"121 Technology Park   Allen, TX 75013",134850,134850,2,2024.4,2023.4,UC,W,--streetnum is:   to   | building name is BUILDING C,121 TECHNOLOGY PARK,33.1471998,-96.6675789,32,DALLAS,1,,,,,,,,
1652900810,2,"2733 Basswood Blvd  Saginaw, TX 76131",130750,130750,4,2024.2,2023.2,UC,W,BUILDING 3,BASSWOOD 35 INDUSTRIAL PARK,32.8767982,-97.3213179,32,FORTWO,0,,,,,,,,
1652905346,2,"3155 N Highway 161   Grand Prairie, TX 75050",52536,52536,2,2024.3,2023.4,UC,W,BUILDING A,COMMERCE CENTER 161,32.801436,-97.016799,0,FORTWO,4,,,,,,,,
1652916988,2,"1800 Pipeline rd  Euless, TX 76040",19350,19350,2,2024.2,2023.4,UC,W,,,32.820008,-97.1122179,22,FORTWO,4,,,,,,,,
1652917708,2,"3451 N Interstate 35   Denton, TX 76207",180657,180657,2,2024.3,2023.4,UC,W,,,33.2237701,-97.1733153,32,DALLAS,1,,,,,,,,
1652918149,2,"2100 Mustang Ct  Southlake, TX 76092",102957,102957,2,2025.1,2023.4,UC,W,BUILDING 3,CONSTELLATION MUSTANG CROSSING,32.9210689,-97.1174147,28,FORTWO,4,,,,,,,,
1652901443,2,"Interstate 35 & Bear Cree   Lancaster, TX 75146",327380,327380,1,2024.3,2024.1,UC,W,--streetnum is:   to   | building name is C5LC AT I35 BUILDING A,,32.5612214,-96.8209419,36,DALLAS,1,,,,,,,,
1652900812,2,"2857 Basswood Blvd  Fort Worth, TX 76131",89741,89741,5,2024.2,2022.3,UC,W,BUILDING 5,,32.8779568,-97.3199492,32,FORTWO,0,,,,,,,,
1652905347,2,"3155 N Highway 161   Grand Prairie, TX 75050",52536,52536,2,2024.3,2023.4,UC,W,BUILDING B,COMMERCE CENTER 161,32.801436,-97.016799,0,FORTWO,4,,,,,,,,
1652913670,2,"4205 Glenview Dr  Haltom City, TX 76117",10000,10000,3,2024.2,2023.3,UC,W,,GLENVIEW INDUSTRIAL PARK,32.83176531,-97.27284152,24,FORTWO,1,,,,,,,,
1652926522,2,"SEC Loop 820 & N Beach St   Haltom City, TX 76137",136468,136468,1,2025.1,2024.1,UC,W,--streetnum is:   to   | building name is MERCANTILE 820 LOGISTICS PARK - BUILDING 1,MERCANTILE 820 LOGISTICS PARK,32.8358943,-97.2891925,32,FORTWO,1,,,,,,,,
1652926669,2,"5 Jamison Ct  Terrell, TX 75160",109847,109847,1,2024.2,2023.3,UC,W,EXPANSION,,32.72868,-96.3202369,32,DALLAS,4,,,,,,,,
1652908405,2,"3520 us 287   Decatur, TX 76234",60000,0,2,2024.2,2023.3,UC,W,--streetnum is:   to   | building name is KLEMENT CHRYSLER JEEP DODGE RAM,,33.1993285,-97.5658606,0,FORTWO,1,,,,,,,,
1652909449,2,"4553 J D Mouser Pky  Alvarado, TX 76009",13800,7200,3,2024.2,2023.1,UC,W,,,32.51874554,-97.15456682,32,FORTWO,4,,,,,,,,
1652876296,2,"10835 Hazelbrand Rd  Covington, GA 30014",500000,500000,6,2024.2,2022.4,UC,W,EAST ATLANTA LOGISTICS CENTER II,,33.6233174,-83.8143792,36,ATLANT,1,,,,,,,,
1652901960,2,"1950 Fulenwider Rd  Gainesville, GA 30507",250990,250990,4,2024.4,2023.2,UC,W,GAINESVILLE 85 BUSINESS CENTER- BUILDING 200,,34.2131228,-83.7771262,32,ATLANT,1,,,,,,,,
1652810765,2,"2250 114th St  Grand Prairie, TX 75050",41923,0,5,2024.2,2023.1,UC,W,,,32.7887,-97.03775,24,FORTWO,3,,,,,,,,
1652889892,2,"2925 Valley View Ln  DFW Airport, TX 75261",739716,739716,7,2024.4,2022.4,UC,W,BUILDING 1,DFW LOGISTICS HUB,32.8870966,-97.0048138,40,DALLAS,0,,,,,,,,
1652914737,2,"7605 Factory Shoals SW   Austell, GA 30168",117036,117036,2,2024.4,2023.4,UC,W,FACTORY SHOALS DISTRIBUTION CENTER,,33.7665455,-84.592286,32,ATLANT,1,,,,,,,,
1652907350,2,"13817 US Highway 380  W Krum, TX 76249",18000,0,3,2024.4,2022.4,UC,W,,,33.234246,-97.285016,18,FORTWO,3,,,,,,,,
1652851823,2,"2801 S Airfield Dr  Dallas, TX 75203",202492,0,10,2024.4,2021.4,UC,W,BUILDING 4,,32.8654799,-97.0248723,32,DALLAS,0,,,,,,,,
1652915224,2,"TX SH 180 & Boswell Dr  Fort Worth, TX 76112",388905,388905,1,2024.4,2023.3,UC,W,--streetnum is:   to   | building name is D,,32.732463,-97.1924442,36,FORTWO,1,,,,,,,,
1652912961,2,"61 Toto Creek Park Rd  Dawsonville, GA 30534",11700,11700,3,2024.2,2023.1,UC,W,,,34.395426,-83.987561,30,ATLANT,1,,,,,,,,
1652906855,2,"1960 Lakepointe Dr  Lewisville, TX 75057",44606,44606,1,2025.1,2024.1,UC,W,BUILDING C,,33.0145572,-96.9760146,28,DALLAS,1,,,,,,,,
1652894900,2,"14800 Blue Mound Rd  Fort Worth, TX 76177",1076459,0,7,2024.4,2023.2,UC,W,ALLIANCE WESTPORT 25,,33.0025506,-97.3402553,40,FORTWO,1,,,,,,,,
1652923078,2,"6850 Cedar Ranch dr  Dallas, TX 75241",59970,59970,1,2024.2,2023.4,UC,W,,,32.6533336,-96.7641291,32,DALLAS,1,,,,,,,,
1652893067,2,"15826 Gateway Dr  Frisco, TX 75035",76480,76480,3,2024.2,2023.3,UC,W,STAR COMMERCE CENTER V,,33.2084276,-96.8120732,28,DALLAS,0,,,,,,,,
1652908410,2,"Chalice Drive   Plano, TX 75024",20000,0,3,2024.3,2023.1,UC,W,--streetnum is:   to   | building name is,,33.0592366,-96.813021,28,DALLAS,4,,,,,,,,
1652918768,2,"2129 Bardin Rd  Grand Prairie, TX 75052",51760,51760,2,2024.2,2023.1,UC,W,,,32.6700782,-97.0353674,24,DALLAS,1,,,,,,,,
1652885024,2,"550 Hooper Rd  Wylie, TX 75098",12750,12750,8,2025.1,2022.1,UC,W,BUILDING 4,HENSLEY PARK,33.00496963,-96.57839382,20,DALLAS,1,,,,,,,,
1652896181,2,"8733 N Stemmons Fwy  Dallas, TX 75247",82773,77915,7,2024.2,2022.1,UC,W,TRINITY INDUSTRIAL PARK,,32.8321946,-96.87491232,0,DALLAS,1,,,,,,,,
1652894196,2,"12791 International Pky  Dallas, TX 75228",183764,183764,7,2024.2,2022.4,UC,W,BUILDING B,PERIMETER PARK,32.8574271,-96.6592954,32,DALLAS,1,,,,,,,,
1652909835,2,"1015 Dry Pond Rd  Jefferson, GA 30549",497094,497094,2,2024.3,2023.4,UC,W,JEFFERSON 85 LOGISTICS CENTER,,34.1870826,-83.5801327,40,ATLANT,0,,,,,,,,
1652901733,2,"540 S Town East Blvd  Mesquite, TX 75149",193800,193800,5,2024.2,2023.2,UC,W,TOWN EAST JUNCTION 540,,32.77574276,-96.64649895,36,DALLAS,4,,,,,,,,
1652923517,2,"3314 Lakeview Pky  Rowlett, TX 75088",68640,68640,1,2025.1,2024.1,UC,W,,,32.90706,-96.572922,32,DALLAS,4,,,,,,,,
1652894644,2,"2580 W Walnut Hill Ln  DFW Airport, TX 75261",509668,509668,6,2025.1,2023.2,UC,W,BUILDING 5,,32.864253,-97.0334037,0,FORTWO,1,,,,,,,,
1652906868,2,"600 E Wintergreen Rd  Lancaster, TX 75134",799529,0,3,2025.1,2023.2,UC,W,BUILDING B,,32.616186,-96.748764,0,DALLAS,0,,,,,,,,
1652918839,2,"4580 J D Mouser Pky  Alvarado, TX 76009",12000,12000,2,2024.3,2023.1,UC,W,,,32.5215695,-97.1560054,0,FORTWO,1,,,,,,,,
1652887969,2,"1400 Senoia Rd  Tyrone, GA 30290",30000,30000,1,2025.1,2024.1,UC,W,74 S BUSINESS PARK - 300,,33.493502,-84.580774,24,ATLANT,4,,,,,,,,
1652910684,2,"2100 State Highway 121   Grapevine, TX 76051",182280,182280,3,2024.4,2023.2,UC,W,,,32.9607794,-97.0364113,36,FORTWO,1,,,,,,,,
1652907653,2,"3120 Camp Bowie Blvd  Fort Worth, TX 76116",100000,0,3,2024.2,2023.1,UC,W,,,32.7510626,-97.3622352,12,FORTWO,4,,,,,,,,
1652914148,2,"6533 McEver Rd  Flowery Branch, GA 30542",176305,0,2,2024.2,2023.2,EX,W,BUFORD TRADE CENTER,,34.165075,-83.958056,0,ATLANT,0,,,,,,,,
1652918145,2,"2100 Mustang Ct  Southlake, TX 76092",188132,188132,2,2025.1,2023.4,UC,W,BUILDING 2,CONSTELLATION MUSTANG CROSSING,32.9210172,-97.1188819,32,FORTWO,3,,,,,,,,
1652918537,2,"4335 W Northgate Dr  Irving, TX 75062",100500,100500,2,2024.3,2023.4,UC,W,,,32.8577239,-97.015549,32,DALLAS,1,,,,,,,,
1652926997,2,"3331 FM 1173   Denton, TX 76207",269600,269600,1,2025.1,2024.1,UC,W,--streetnum is:   to   | building name is DENTON LOGISTICS CENTER,,33.25967356,-97.18807613,32,DALLAS,1,,,,,,,,
1652891933,2,"842 Metromont Rd  Hiram, GA 30141",27500,27500,4,2024.4,2023.2,UC,W,,,33.8774938,-84.7446269,22,ATLANT,4,,,,,,,,
1652918143,2,"2100 Mustang Ct  Southlake, TX 76092",134401,134401,2,2025.1,2023.4,UC,W,BUILDING 1,,32.9219764,-97.1188739,32,FORTWO,4,,,,,,,,
1652919242,2,"2501 Melody Hills Ln  Fort Worth, TX 76137",68554,0,2,2024.3,2023.3,UC,W,,,32.8331546,-97.3112894,0,FORTWO,4,,,,,,,,
1652891362,2,"Prosper Trl  Prosper, TX 75078",25170,20170,5,2024.2,2022.4,UC,W,--streetnum is: TBD to   | building name is,,33.2466637,-96.8100777,0,DALLAS,1,,,,,,,,
1652869287,2,"4925 E Renfro St  Alvarado, TX 76009",47500,0,8,2024.2,2023.1,UC,W,,,32.4746854,-97.2387887,0,FORTWO,3,,,,,,,,
1652906157,2,"2630 Gravel Springs Rd  Buford, GA 30519",1001424,1001424,2,2025.1,2023.2,UC,W,GRAVEL SPRINGS LOGISTICS CENTER,,34.06450813,-83.94861863,40,ATLANT,3,,,,,,,,
1652909357,2,"1021 Douglas Hills Rd  Lithia Springs, GA 30122",104848,104848,2,2024.4,2023.4,UC,W,BUILDING 300,DOUGLAS HILLS LOGISTIC CENTER,33.75912783,-84.61527083,32,ATLANT,2,,,,,,,,
1652924378,2,"3770 Francis Cir  Alpharetta, GA 30004",16250,0,1,2024.4,2023.2,UC,W,BUILDING 500,,34.146663,-84.244045,0,ATLANT,1,,,,,,,,
1652893757,2,"3770 Francis Cir  Alpharetta, GA 30004",22500,22500,5,2024.4,2023.2,UC,W,BUILDING 200,,34.1483829,-84.24221263,20,ATLANT,3,,,,,,,,
1652889912,2,"3225 Valley View Ln  DFW Airport, TX 75261",499876,0,6,2024.3,2023.3,UC,W,BUILDING 3,DFW LOGISTICS HUB,32.84899988,-97.02196054,40,DALLAS,4,,,,,,,,
1652898071,2,"13227 Old Denton Rd  Fort Worth, TX 76177",17148,0,5,2024.2,2022.1,UC,W,,TEXAS FRONTIER PARK,32.9689797,-97.3003969,0,FORTWO,1,,,,,,,,
1652914963,2,"5640 Eden Rd  Kennedale, TX 76060",10000,10000,1,2024.2,2024.1,UC,W,,,32.632815,-97.198121,0,FORTWO,1,,,,,,,,
1652884843,2,"Harry McKillop Blvd & Old   McKinney, TX 75069",304576,0,6,2024.2,2022.3,UC,W,--streetnum is:   to   | building name is M-75 COMMERCE CENTER,,33.1685414,-96.6083901,36,DALLAS,1,,,,,,,,
1652896723,2,"1220 Sage Hill Pky  Forney, TX 75126",1024549,1024549,7,2024.3,2023.2,UC,W,BUILDING 1,GATEWAY CROSSING LOGISTICS PARK,32.7293798,-96.3931773,40,DALLAS,1,,,,,,,,
1652900995,2,"2248 SE Loop 820   Fort Worth, TX 76140",53780,53780,3,2024.2,2023.2,UC,W,E,,32.6607717,-97.274505,0,FORTWO,3,,,,,,,,
1652899850,2,"2003 MacArthur Blvd  Grand Prairie, TX 75050",602355,0,6,2025.1,2022.2,UC,W,,,32.774425,-96.964676,40,DALLAS,0,,,,,,,,
1652900840,2,"4600 S Hardin Blvd  McKinney, TX 75070",76433,0,5,2024.2,2023.1,EX,W,BUILDING 1,MCKINNEY 121,33.1523794,-96.6658438,0,DALLAS,0,,,,,,,,
1652900994,2,"2232 SE Loop 820   Fort Worth, TX 76140",53780,53780,3,2024.2,2023.2,UC,W,D,,32.6607717,-97.274505,0,FORTWO,3,,,,,,,,
1652891475,2,"4905 Catron Dr  Dallas, TX 75227",16500,0,1,2024.3,2024.1,UC,W,,,32.782475,-96.675639,0,DALLAS,4,,,,,,,,
1652922763,2,"Old Covington Hwy   Conyers, GA 30013",212745,212745,1,2025.1,2024.1,UC,W,--streetnum is:   to   | building name is ROCKDALE 20 EAST BUSINESS CENTER,,33.6498447,-83.9865374,32,ATLANT,0,,,,,,,,
1652918834,2,"4556 J D Mouser Pky  Alvarado, TX 76009",10000,10000,2,2024.3,2023.1,UC,W,,,32.5206741,-97.1565796,0,FORTWO,0,,,,,,,,
1652922891,2,"6525 Business 78   Nevada, TX 75173",10500,10500,1,2024.2,2023.4,UC,W,,,33.066681,-96.42329,17,DALLAS,1,,,,,,,,
1652897494,2,"1500 N Mayhill Rd  Denton, TX 76208",91745,91745,2,2024.2,2023.3,UC,W,MAYHILL 380 BUSINESS PARK - BUILDING 2,,33.21355139,-97.08342433,0,DALLAS,3,,,,,,,,
1652879833,2,"3235 Dahlonega Hwy  Cumming, GA 30040",45000,0,10,2024.2,2021.4,UC,W,,,34.270391,-84.103117,0,ATLANT,3,,,,,,,,
1652797143,2,"105 Distribution Dr  Mcdonough, GA 30252",262000,0,5,2024.3,2023.1,UC,W,,KING MILL DISTRIBUTION PARK,33.40066,-84.13795,0,ATLANT,0,,,,,,,,
1652891637,2,"3550 New York Ave  Arlington, TX 76014",201650,201650,6,2024.2,2023.2,UC,W,BUILDING 4,PROLOGIS INTERCHANGE 20,32.6851262,-97.08444,36,FORTWO,2,,,,,,,,
1652847991,2,"352 Raco Pky  Pendergrass, GA 30567",1017900,1017900,4,2024.4,2023.4,UC,W,BUILDING 2,JACKSON 85 NORTH BUSINESS PARK,34.19757833,-83.60231,40,ATLANT,4,,,,,,,,
1652901404,2,"1801 N Masch Branch Rd  Denton, TX 76207",40320,40320,6,2024.2,2023.2,UC,W,BUILDING 2,M380 BUSINESS PARK,33.234917,-97.197974,0,DALLAS,3,,,,,,,,
1652844747,2,"3861 Grant Rd  Ellenwood, GA 30294",10920,0,5,2024.4,2023.1,UC,W,,,33.64561,-84.30362,0,ATLANT,3,,,,,,,,
1652893436,2,"6385 Cross Roads   Cumming, GA 30041",45000,30000,7,2024.2,2022.3,UC,W,BUILDING 200,,34.3185978,-84.0573991,18,ATLANT,0,,,,,,,,
1652889910,2,"3075 Valley View Ln  DFW Airport, TX 75261",337862,337862,7,2024.3,2023.2,UC,W,BUILDING 2,DFW LOGISTICS HUB,32.84824797,-97.02200413,36,DALLAS,2,,,,,,,,
1652918829,2,"4573 J D Mouser Pky  Alvarado, TX 76009",16000,16000,2,2024.2,2023.1,UC,W,,,32.5201564,-97.1561828,0,FORTWO,0,,,,,,,,
1652924318,2,"1901 Peachtree Industrial Blvd  Buford, GA 30518",45000,21000,1,2025.1,2024.1,UC,W,,,34.124927,-84.017175,20,ATLANT,1,,,,,,,,
1652896320,2,"2202 Franklin Ave  Mesquite, TX 75150",49033,38500,3,2024.2,2023.3,UC,W,,,32.7942788,-96.6140972,18,DALLAS,1,,,,,,,,
1652887425,2,"1400 Senoia   Tyrone, GA 30290",30000,17500,1,2025.1,2024.1,UC,W,74 S BUSINESS PARK - 100,74 SOUTH BUSINESS PARK,33.493502,-84.580774,24,ATLANT,1,,,,,,,,
1652893674,2,"County Road 212   Forney, TX 75126",430436,430436,7,2024.2,2022.3,UC,W,--streetnum is:   to   | building name is BUILDING 1,PLATFORM 80 / 20,32.7343446,-96.4225887,36,DALLAS,1,,,,,,,,
1652909360,2,"1001 Douglas Hills Rd  Lithia Springs, GA 30122",110788,110788,2,2024.4,2023.4,UC,W,BUILDING 400,DOUGLAS HILLS LOGISTIC CENTER,33.75886602,-84.61110536,32,ATLANT,0,,,,,,,,
1652909340,2,"1060 Douglas Hills Rd  Lithia Springs, GA 30122",489416,489416,2,2024.3,2023.3,UC,W,BUILDING 100,DOUGLAS HILLS LOGISTIC CENTER,33.7597381,-84.612681,36,ATLANT,1,,,,,,,,
1652909348,2,"1050 Douglas Hills Rd  Lithia Springs, GA 30122",147727,147727,2,2024.3,2023.3,UC,W,BUILDING 200,DOUGLAS HILLS LOGISTIC CENTER,33.7591801,-84.6114691,32,ATLANT,2,,,,,,,,
1652887793,2,"121 Technology Park   Allen, TX 75013",128123,128123,4,2024.2,2023.2,UC,W,--streetnum is:   to   | building name is BUILDING E,121 TECHNOLOGY PARK,33.1468765,-96.6659494,32,DALLAS,0,,,,,,,,
1652872727,2,"Tramore Pointe Pky  Austell, GA 30106",47500,0,3,2024.2,2023.3,UC,W,,,33.8596949,-84.6231074,0,ATLANT,3,,,,,,,,
1652924375,2,"3770 Francis Cir  Alpharetta, GA 30004",15000,0,1,2024.4,2023.2,UC,W,BUILDING 300,,34.146663,-84.244045,0,ATLANT,1,,,,,,,,
1652918835,2,"4560 J D Mouser Pky  Alvarado, TX 76009",10000,7500,2,2024.3,2023.1,UC,W,,,32.5208459,-97.1567378,0,FORTWO,1,,,,,,,,
1652918148,2,"2100 Mustang Ct  Southlake, TX 76092",120840,120840,2,2025.1,2023.4,UC,W,BUILDING 4,CONSTELLATION MUSTANG CROSSING,32.9219245,-97.1173396,28,FORTWO,4,,,,,,,,
1652886563,2,"4000 Chamblee Rd  Oakwood, GA 30566",224599,224599,8,2024.2,2022.1,UC,W,OAKWOOD COMMERCE CENTER,,34.2181149,-83.8876659,32,ATLANT,2,,,,,,,,
1652851601,2,"409 Power House Dr  Mckinney, TX 75071",12321,0,4,2024.2,2023.1,UC,W,,,33.217093,-96.611622,0,DALLAS,4,,,,,,,,
1652886558,2,"5050 Stonewall Tell Rd  Atlanta, GA 30349",172000,172000,8,2024.2,2022.2,UC,W,STONEWALL LOGISTICS CENTER,,33.6174968,-84.5577774,32,ATLANT,4,,,,,,,,
1652865885,2,"2105 Buford Hwy  Buford, GA 30518",494804,494804,11,2024.2,2022.1,UC,W,DOWNTOWN BUFORD LOGISTICS CENTER,,34.109816,-83.9989669,36,ATLANT,2,,,,,,,,
1652907799,2,"1075 Lower Woolsey Rd  Hampton, GA 30228",1392166,0,3,2024.2,2023.1,UC,W,,,33.3696127,-84.3147171,0,ATLANT,0,,,,,,,,
1652897666,2,"ICC-35   Denton, TX 76207",702766,702766,6,2024.4,2023.3,UC,W,--streetnum is:   to   | building name is BUILDING 3,ICC-35,33.2583305,-97.1828792,0,DALLAS,0,,,,,,,,
1652911371,2,"601 W Pleasant Run Rd  Wilmer, TX 75172",420643,420643,2,2024.3,2023.3,UC,W,INLAND LOGISTICS CENTER,,32.60389063,-96.70464292,36,DALLAS,1,,,,,,,,
1652913313,2,"7501 Factory Shoals Rd  Austell, GA 30168",115650,115650,1,2025.1,2024.1,UC,W,20W FACTORY SHOALS COMMERCE CENTER,,33.76996889,-84.5890832,32,ATLANT,4,,,,,,,,
1652921812,2,"3296 Burk Dr  Chamblee, GA 30341",174800,0,1,2024.3,2023.2,UC,W,,,33.88625,-84.3002,0,ATLANT,1,,,,,,,,
1652828587,2,"1325 Highway 42   Mcdonough, GA 30252",1219826,1219826,1,2025.1,2024.1,UC,W,BUILDING A,PNK PARK SOUTHERN GATEWAY,33.4095545,-84.139746,41,ATLANT,0,,,,,,,,
856328172,2,"350 Raco Pky  Pendergrass, GA 30567",538450,538450,5,2024.4,2023.3,UC,W,BUILDING 1,JACKSON 85 NORTH BUSINESS PARK,34.19590378,-83.60250092,40,ATLANT,4,,,,,,,,
1652891290,2,"201 GA-293   Cartersville, GA 30120",127180,127180,8,2024.2,2022.2,UC,W,NORTHWEST LOGISTICS CENTER - BUILDING 1,,34.15262359,-84.78455049,32,ATLANT,1,,,,,,,,
1652918934,2,"2701 S State Highway 121 Busines   Lewisville, TX 75067",50125,50125,2,2024.3,2023.3,UC,W,EDMONDS 121 INTERCHANGE,,32.9945173,-97.004756,28,DALLAS,1,,,,,,,,
1652920674,2,"100 Wes Walker Memorial Dr  Ball Ground, GA 30107",30000,30000,2,2024.4,2023.4,UC,W,,,34.303726,-84.424874,22,ATLANT,0,,,,,,,,
1652909452,2,"4549 J D Mouser Pky  Alvarado, TX 76009",13800,13800,3,2024.3,2023.1,UC,W,,,32.5207139,-97.1560565,20,FORTWO,1,,,,,,,,
1652823299,2,"1100 Bold Ruler Rd  Justin, TX 76247",1042000,0,6,2024.3,2022.4,UC,W,BLDG 7,INTERMODAL LOGISTICS CENTER,33.0136959,-97.3341759,40,FORTWO,0,,,,,,,,
1652918594,2,"6901 N Interstate 35   Denton, TX 76207",129721,129721,1,2025.1,2024.1,UC,W,BUILDING 2,,33.2729777,-97.1804559,32,DALLAS,4,,,,,,,,
1652892616,2,"3101 NW Centre   Fort Worth, TX 76135",221444,0,7,2024.2,2022.3,UC,W,BUILDING A,FORT WEST COMMERCE CENTER,32.8043632,-97.4344194,36,FORTWO,1,,,,,,,,
1652886730,2,"Bledsoe   Newnan, GA 30265",12000,12000,1,2025.1,2024.1,UC,W,--streetnum is:   to   | building name is GTD PARK AT BLEDSOE BUILDING B,,33.4013003,-84.7547656,28,ATLANT,2,,,,,,,,
1652894195,2,"12790 International Pky  Dallas, TX 75228",113864,113864,7,2024.2,2022.3,UC,W,BUILDING A,PERIMETER PARK,32.8583914,-96.6593303,32,DALLAS,4,,,,,,,,
1652917117,2,"7815 Jetstar Dr  Irving, TX 75063",69160,69160,1,2024.3,2024.1,UC,W,TRISTAR BUSINESS PARK,,32.913254,-97.0031873,32,DALLAS,0,,,,,,,,
1652894407,2,"7995 Bowen Rd  Palmetto, GA 30268",563193,563193,7,2024.2,2022.3,UC,W,ROOSEVELT LOGISTICS CENTER,,33.52913,-84.65139,40,ATLANT,2,,,,,,,,
1652887799,2,"121 Technology Park   Allen, TX 75013",85383,85383,2,2024.4,2023.4,UC,W,--streetnum is:   to   | building name is BUILDING G,121 TECHNOLOGY PARK,33.1465689,-96.6662791,32,DALLAS,1,,,,,,,,
1652892468,2,"3221 Lyndon B Johnson Fwy  Dallas, TX 75234",59970,0,2,2025.1,2023.4,UC,W,,,32.9143053,-96.8695946,32,DALLAS,4,,,,,,,,
1652923075,2,"6850 Cedar Ranch Dr.   Dallas, TX 75241",59970,59970,1,2025.1,2023.4,UC,W,,,32.6533336,-96.7641291,32,DALLAS,0,,,,,,,,
1652915196,2,"TX SH 180 & Boswell Dr  Fort Worth, TX 76112",76150,76150,3,2024.3,2023.3,UC,W,--streetnum is:   to   | building name is B,,32.7326549,-97.1963037,32,FORTWO,0,,,,,,,,
1652901827,2,"1900 Fulenwider Rd  Gainesville, GA 30507",334670,334670,4,2024.4,2023.2,UC,W,GAINESVILLE 85 BUSINESS CENTER- BUILDING 100,,34.2132757,-83.7796652,36,ATLANT,0,,,,,,,,
1652907866,2,"4800 Sterilite Dr  Ennis, TX 75119",135000,0,3,2024.3,2023.1,UC,W,FRESHPET PHASE 2,,32.29366759,-96.59290809,0,DALLAS,0,,,,,,,,
1652892515,2,"1037 Cassville White Rd  White, GA 30184",139950,139950,7,2024.2,2022.3,UC,W,BUILDING 2,,34.2721412,-84.80108675,32,ATLANT,0,,,,,,,,
1652897492,2,"1500 N Mayhill Rd  Denton, TX 76208",91745,91745,3,2024.3,2023.3,UC,W,MAYHILL 380 BUSINESS PARK - BUILDING 1,,33.21355139,-97.08342433,0,DALLAS,4,,,,,,,,
1652896157,2,"700 Williams Dr  Marietta, GA 30066",16800,0,2,2024.3,2023.4,UC,W,,,33.991865,-84.5453317,20,ATLANT,0,,,,,,,,
1652918765,2,"2125 Bardin Rd  Grand Prairie, TX 75052",31414,31414,2,2024.2,2023.1,UC,W,,,32.6693349,-97.0338769,24,DALLAS,0,,,,,,,,
1652892432,2,"4851 E Loop 820 South   Fort Worth, TX 76119",238289,238289,3,2024.3,2023.3,UC,W,OAK CREEK DISTRIBUTION CENTER,,32.694382,-97.233905,32,FORTWO,0,,,,,,,,
1652901738,2,"2807 E Centerville Rd  Garland, TX 75040",150926,150926,3,2024.3,2023.3,UC,W,2807 E CENTERVILLE,,32.90558308,-96.60025787,36,DALLAS,0,,,,,,,,
1652901709,2,"1 Industrial Access Rd  Douglasville, GA 30134",257920,257920,5,2025.1,2023.1,UC,W,ACCESS WEST LOGISTICS CENTER,,33.7753029,-84.7174038,32,ATLANT,0,,,,,,,,
1652874697,2,"501 W Risinger Rd  Fort Worth, TX 76140",655600,655600,4,2025.1,2023.2,EX,W,BUILDING 2,RISINGER SOUTH,32.61409229,-97.33450268,40,FORTWO,4,,,,,,,,
1652918830,2,"4577 J D Mouser Pky  Alvarado, TX 76009",16000,12000,2,2024.3,2023.1,UC,W,,,32.5204097,-97.1564054,0,FORTWO,0,,,,,,,,
1652851133,2,"3701 Norwich St  Dallas, TX 75212",763960,378826,5,2024.4,2023.2,UC,W,BUILDING 2,TRINITY WEST,32.787097,-96.886384,40,DALLAS,1,,,,,,,,
1652894658,2,"175 Candler Rd  McDonough, GA 30253",498160,498160,6,2024.4,2022.3,UC,W,STOCKBRIDGE LOGISTICS CENTER,,33.4811766,-84.1807392,40,ATLANT,0,,,,,,,,
1652892512,2,"1039 Cassville White Rd  White, GA 30184",155820,155820,7,2024.2,2022.3,UC,W,BUILDING 1,,34.2721412,-84.80108675,32,ATLANT,0,,,,,,,,
1652918332,2,"350 Logistics Pky  Jackson, GA 30233",250141,250141,2,2024.4,2023.4,UC,W,RIVERPARK 2,,33.2666422,-84.0925711,32,ATLANT,0,,,,,,,,
1652900845,2,"4700 S Hardin Blvd  McKinney, TX 75070",95179,0,5,2024.2,2022.3,UC,W,BUILDING 2,MCKINNEY 121,33.15420331,-96.66351025,0,DALLAS,2,,,,,,,,
1652866361,2,"Leora & ST HWY 121   Lewisville, TX 75067",23400,0,4,2025.1,2023.3,UC,W,--streetnum is:   to   | building name is BUILDING 4,,33.0580896,-96.9102844,0,DALLAS,2,,,,,,,,
1652874907,2,"Laird Rd And Bill Carruth Pky  Hiram, GA 30141",367360,0,2,2024.3,2023.2,UC,W,--streetnum is:   to   | building name is BUILDING A,SILVER COMET INDUSTRIAL PARK,33.8557475,-84.7713759,32,ATLANT,0,,,,,,,,
1652908865,2,"2154 Texas 121   Melissa, TX 75454",44000,44000,2,2025.1,2023.4,UC,W,,,33.27749756,-96.57103035,24,DALLAS,4,,,,,,,,
1652914562,2,"800 Weldon Rd  Palmetto, GA 30268",300000,300000,3,2024.2,2023.1,UC,W,HQ INDUSTRIAL,,33.50071093,-84.64910264,36,ATLANT,0,,,,,,,,
1652887788,2,"121 Technology Park   Allen, TX 75013",33116,33116,4,2024.2,2023.2,UC,W,--streetnum is:   to   | building name is BUILDING A,121 TECHNOLOGY PARK,33.1475221,-96.6669868,28,DALLAS,1,,,,,,,,
1652909450,2,"4557 J D Mouser Pky  Alvarado, TX 76009",26400,26400,3,2024.3,2023.1,UC,W,,,32.51881534,-97.1546125,0,FORTWO,4,,,,,,,,
1652904239,2,"1250 W Oakdale Rd  Grand Prairie, TX 75050",70050,70050,5,2024.2,2023.3,EX,W,,,32.793454,-97.020846,28,FORTWO,0,,,,,,,,
1652891630,2,"3651 Allen Ave  Arlington, TX 76014",173243,173243,6,2024.2,2023.2,UC,W,BUILDING 3,PROLOGIS NEW YORK AVE,32.685557,-97.0826494,36,FORTWO,2,,,,,,,,
1652884453,2,"300 W Wintergreen Rd  Hutchins, TX 75141",560030,560030,3,2024.4,2023.3,UC,W,,,32.626482,-96.705454,40,DALLAS,0,,,,,,,,
1652924289,2,"2650 S Great Southwest Pky  Grand Prairie, TX 75052",150806,150806,1,2024.4,2024.1,UC,W,BUILDING 1,PARK SOUTH GSW,32.708603,-97.045713,32,FORTWO,0,,,,,,,,
1652904999,2,"2475 Hwy 155   Locust Grove, GA 30248",427200,427200,4,2024.3,2023.2,UC,W,MCDONOUGH 75 LOGISTICS CENTER,,33.3763632,-84.1771907,36,ATLANT,0,,,,,,,,
1652822818,2,"Bridgeport Blvd  Newnan, GA 30263",1201200,1201200,5,2024.3,2023.3,UC,W,--streetnum is:   to   | building name is BUILDING D,BRIDGEPORT,33.3129194,-84.7847283,40,ATLANT,4,,,,,,,,
1652919393,2,"304 FM 1830   Argyle, TX 76226",36000,36000,2,2024.2,2023.4,UC,W,1,ARGYLE BUSINESS PARK,33.1141168,-97.1357422,19,DALLAS,4,,,,,,,,
1652902373,2,"11124 Goodnight Ln  Dallas, TX 75229",289564,289564,3,2024.2,2023.2,UC,W,PHASE IV- BUILDING A,CORE35,32.88519121,-96.90188191,32,DALLAS,1,,,,,,,,
1652915472,2,"301 Southwestern Blvd  Coppell, TX 75019",109744,109744,2,2024.4,2023.4,UC,W,BUILDING I,PARK WEST CROSSING - PHASE III,32.94812686,-97.00010828,0,DALLAS,0,,,,,,,,
1652908847,2,"S 2nd Ave and Klein Tools   Mansfield, TX 76063",25822,0,2,2024.2,2023.3,UC,W,--streetnum is:   to   | building name is,,32.5398695,-97.139631,0,FORTWO,0,,,,,,,,
1652923065,2,"2917 Chesser Boyer Rd  Fort Worth, TX 76111",156866,156866,1,2024.4,2024.1,UC,W,CHESSER 35 BUILDING B,,32.804245,-97.302801,32,FORTWO,0,,,,,,,,
1652878481,2,"4500 S Hardin Blvd  McKinney, TX 75070",116513,0,4,2025.1,2023.4,UC,W,BUILDING 4,,33.15420331,-96.66351025,28,DALLAS,2,,,,,,,,
1652924377,2,"3770 Francis Cir  Alpharetta, GA 30004",33750,0,1,2024.4,2023.2,UC,W,BUILDING 400,,34.146663,-84.244045,0,ATLANT,0,,,,,,,,
1652924292,2,"2650 S Great Southwest Pky  Grand Prairie, TX 75052",134059,134059,1,2024.4,2024.1,UC,W,BUILDING 2,PARK SOUTH GSW,32.708603,-97.045713,24,FORTWO,0,,,,,,,,
1652887792,2,"121 Technology Park   Allen, TX 75013",115208,115208,4,2024.2,2023.2,UC,W,--streetnum is:   to   | building name is BUILDING D,121 TECHNOLOGY PARK,33.1471288,-96.6669573,32,DALLAS,1,,,,,,,,
1652900990,2,"2212 SE Loop 820   Fort Worth, TX 76112",11250,11250,3,2024.2,2023.2,UC,W,B,,32.6607717,-97.274505,0,FORTWO,4,,,,,,,,
1652902375,2,"11110 Goodnight Ln  Dallas, TX 75229",142966,0,3,2024.2,2023.2,UC,W,PHASE IV- BUILDING B,CORE35,32.88411145,-96.90187432,32,DALLAS,2,,,,,,,,
1652903451,2,"621 Bohannon Rd  Fairburn, GA 30213",316072,316072,2,2024.4,2023.4,UC,W,OAKMONT 85 SOUTH,,33.54357548,-84.59187974,36,ATLANT,2,,,,,,,,
1652880652,2,"10400 Frisco   Frisco, TX 75034",74600,2900,10,2024.2,2021.4,UC,W,AIP FRISCO,,33.16689414,-96.83341217,18,DALLAS,0,,,,,,,,
1652893676,2,"County Road 212   Forney, TX 75126",512223,512223,7,2024.3,2022.3,UC,W,--streetnum is:   to   | building name is BUILDING 2,PLATFORM 80 / 20,32.733204,-96.4239678,40,DALLAS,2,,,,,,,,
1652896733,2,"1228 Sage Hill Pky  Forney, TX 75126",264940,264940,7,2024.3,2023.2,UC,W,BUILDING 3,GATEWAY CROSSING LOGISTICS PARK,32.7256115,-96.3935098,36,DALLAS,4,,,,,,,,
1652902999,2,"651 W Wildlife Parkway   Grand Prairie, TX 75050",258120,258120,5,2024.3,2023.1,UC,W,WILDLIFE 14,WILDLIFE COMMERCE PARK,32.776839,-97.009772,36,FORTWO,1,,,,,,,,
1652897495,2,"1500 N Mayhill Rd  Denton, TX 76208",77981,77981,2,2024.2,2023.3,UC,W,MAYHILL 380 BUSINESS PARK - BUILDING 3,,33.21355139,-97.08342433,0,DALLAS,0,,,,,,,,
1652847325,2,"S Fulton Pkwy   Union City, GA 30349",800000,800000,8,2024.3,2022.2,UC,W,--streetnum is:   to   | building name is MAC V - BUILDING 2,MAJESTIC AIRPORT CENTER IV,33.6149975,-84.5677008,40,ATLANT,0,,,,,,,,
1652901444,2,"Interstate 35 & Bear Cree Rd  Lancaster, TX 75146",276880,276880,1,2024.3,2024.1,UC,W,--streetnum is:   to   | building name is C5LC AT I-35 BUILDING B,,32.5611626,-96.8214461,36,DALLAS,1,,,,,,,,
1652907141,2,"3351 S Wyatt Rd  Midlothian, TX 76065",10000,0,3,2024.2,2023.1,UC,W,,,32.463683,-97.04179,0,DALLAS,0,,,,,,,,
1652892437,2,"6455 Best Friend Rd  Norcross, GA 30071",453600,0,6,2024.4,2023.2,UC,W,,,33.917799,-84.226359,40,ATLANT,4,,,,,,,,
1652888086,2,"328 Clay Rd   Sunnyvale, TX 75182",182369,182369,4,2024.3,2023.2,UC,W,SUNNYVALE CROSSING,,32.768974,-96.557529,36,DALLAS,1,,,,,,,,
1652915228,2,"TX SH 180 & Boswell Dr  Fort Worth, TX 76112",121740,121740,1,2024.3,2023.3,UC,W,--streetnum is:   to   | building name is E,,32.7300031,-97.1925397,32,FORTWO,1,,,,,,,,
1652918843,2,"4584 J D Mouser Pky  Alvarado, TX 76009",12000,12000,2,2024.3,2023.1,UC,W,,,32.5212099,-97.15692,0,FORTWO,0,,,,,,,,
1652896732,2,"1224 Sage Hill Pky  Forney, TX 75126",473397,473397,7,2024.4,2023.2,UC,W,BUILDING 2,GATEWAY CROSSING LOGISTICS PARK,32.7285156,-96.3902671,36,DALLAS,0,,,,,,,,
1652887795,2,"121 Technology Park   Allen, TX 75013",148542,148542,2,2024.4,2023.4,UC,W,--streetnum is:   to   | building name is BUILDING F,121 TECHNOLOGY PARK,33.1466004,-96.6666558,32,DALLAS,0,,,,,,,,
1652918588,2,"6901 N Interstate 35   Denton, TX 76207",114138,114138,1,2025.1,2024.1,UC,W,BUILDING 1,,33.2725628,-97.1791258,32,DALLAS,0,,,,,,,,
1652924372,2,"3770 Francis Cir  Alpharetta, GA 30004",32500,0,1,2024.4,2023.2,UC,W,BUILDING 100,,34.146663,-84.244045,20,ATLANT,0,,,,,,,,
1652926531,2,"SEC Loop 820 & N Beach St  Haltom City, TX 76137",221054,221054,1,2025.1,2024.1,UC,W,--streetnum is:   to   | building name is MERCANTILE 820 LOGISTICS PARK - BUILDING 4,MERCANTILE 820 LOGISTICS PARK,32.836012,-97.286078,36,FORTWO,0,,,,,,,,
1652895806,2,"SEC Lancaster Hutchins Rd Rd  Lancaster, TX 75134",177320,177320,2,2024.3,2023.4,UC,W,--streetnum is:   to   | building name is BUILDING A,WINTERGREEN LOGISTICS CENTER,32.6149835,-96.7336921,32,DALLAS,0,,,,,,,,
1652896178,2,"1000 N Main St  Mansfield, TX 76063",416000,0,4,2024.2,2023.1,UC,W,"MOUSER ELECTRONICS, INC. EXPANSION",,32.578992,-97.147336,0,FORTWO,4,,,,,,,,
1652906167,2,"1000 Spinks Ct  Lewisville, TX 75067",60000,26167,3,2024.3,2023.3,UC,W,,,32.9970915,-97.0167297,29,DALLAS,2,,,,,,,,
1652887790,2,"121 Technology Park   Allen, TX 75013",94413,0,4,2024.2,2023.2,UC,W,--streetnum is:   to   | building name is BUILDING B,121 TECHNOLOGY PARK,33.1476119,-96.6663539,32,DALLAS,0,,,,,,,,
1652906893,2,"Kroger Drive   Forney, TX 75126",100000,0,3,2024.2,2023.2,UC,W,--streetnum is:   to   | building name is,,32.7471537,-96.4420613,40,DALLAS,1,,,,,,,,
1652883256,2,"Granite Lane & Peachtree   Suwanee, GA 30024",30000,0,4,2024.4,2023.2,UC,W,--streetnum is:   to   | building name is,,34.0751402,-84.1632618,0,ATLANT,2,,,,,,,,
1652908532,2,"1500 Progress Industrial Blvd  Lawrenceville, GA 30043",163170,163170,2,2025.1,2023.3,UC,W,,,33.9960678,-83.9604705,32,ATLANT,4,,,,,,,,
1652892883,2,"201 S Clay Rd  Sunnyvale, TX 75182",316297,316297,7,2024.4,2023.1,UC,W,LANDMARK SUNNYVALE BUILDING 2,,32.7752721,-96.5638122,36,DALLAS,0,,,,,,,,
1652897804,2,"1525 Airport Blvd  Mesquite, TX 75181",342196,342196,4,2024.4,2023.2,EX,W,BUILDING 4,,32.7512773,-96.53358877,36,DALLAS,4,,,,,,,,
1652900984,2,"155 Tiger   Rhome, TX 76078",100000,0,5,2024.2,2023.1,UC,W,,114 INDUSTRIAL,33.0404071,-97.4242121,0,FORTWO,4,,,,,,,,
1652906685,2,"Logistics Pky  Jackson, GA 30233",825000,825000,1,2025.1,2024.1,UC,W,--streetnum is:   to   | building name is RIVER PARK BLDG 10,,33.273577,-84.092198,40,ATLANT,2,,,,,,,,
1652909984,2,"221 Airport Dr  Mansfield, TX 76063",203000,203000,3,2024.2,2023.1,UC,W,BUILDING 2,,32.552196,-97.140224,36,FORTWO,4,,,,,,,,
1652923062,2,"2917 Chesser Boyer Rd  Fort Worth, TX 76111",156866,156866,1,2024.4,2024.1,UC,W,CHESSER 35 BUILDING A,,32.804245,-97.302801,32,FORTWO,0,,,,,,,,
1652898035,2,"1442 Marietta Rd W Atlanta, GA 30318",220863,0,2,2025.1,2023.4,UC,W,AMAZON DISTRIBUTION FACILITY,,33.78805838,-84.43598255,0,ATLANT,4,,,,,,,,
1652908748,2,"Rockhill Pkwy   Frisco, TX 75035",100500,0,3,2025.1,2022.4,UC,W,--streetnum is:   to   | building name is,,33.2091993,-96.8079226,0,DALLAS,0,,,,,,,,
1652852883,2,"4243 Singleton Blvd  Dallas, TX 75212",196996,0,5,2024.2,2023.2,UC,W,BUILDING 3,TRINITY WEST,32.787097,-96.886384,28,DALLAS,1,,,,,,,,
1652881306,2,"State Highway 121   Melissa, TX 75454",47450,3000,2,2024.3,2023.4,UC,W,--streetnum is:   to   | building name is BUILDING B,,33.3033692,-96.5304281,16,DALLAS,1,,,,,,,,
1652907619,2,"4831 W Northgate Dr  Irving, TX 75062",65960,65960,2,2024.3,2023.4,UC,W,,,32.85713722,-97.01746386,35,DALLAS,1,,,,,,,,
1652904905,2,"501 W Wildlife Parkway   Grand Prairie, TX 75050",305640,305640,5,2024.3,2023.1,UC,W,WILDLIFE 15,WILDLIFE COMMERCE PARK,32.776864,-97.007645,36,FORTWO,1,,,,,,,,
1652906837,2,"1960 Lakepointe Dr  Lewisville, TX 75057",44952,44952,1,2024.3,2024.1,UC,W,BUILDING A,,33.014452,-96.976018,28,DALLAS,1,,,,,,,,
1652909365,2,"2080 Redbud Blvd  McKinney, TX 75069",32488,0,1,2025.1,2024.1,UC,W,,,33.2217284,-96.626856,24,DALLAS,4,,,,,,,,
1652918836,2,"4576 J D Mouser Pky  Alvarado, TX 76009",16800,16800,2,2024.3,2023.1,UC,W,,,32.5212778,-97.1557453,0,FORTWO,0,,,,,,,,
1652900992,2,"2224 SE Loop 820   Fort Worth, TX 76140",20088,20088,3,2024.2,2023.2,UC,W,C,,32.6607717,-97.274505,21,FORTWO,4,,,,,,,,
1652927474,2,"4560 Excel Pky  Addison, TX 75001",101364,101364,1,2025.1,2024.1,UC,W,,,32.9781,-96.835735,32,DALLAS,4,,,,,,,,
1652901405,2,"1801 N Masch Branch Rd  Denton, TX 76207",51840,51840,6,2024.2,2023.2,UC,W,BUILDING 1,M380 BUSINESS PARK,33.234917,-97.197974,0,DALLAS,0,,,,,,,,
1652901482,2,"11335 Lewis Braselton Blvd  Braselton, GA 30517",114780,114780,1,2024.3,2023.3,UC,W,BRASELTON TECHNOLOGY CENTER,,34.118603,-83.742764,32,ATLANT,4,,,,,,,,
1652915237,2,"221 Southwestern Blvd  Coppell, TX 75019",95071,95071,2,2024.4,2023.4,UC,W,BUILDING J,PARK WEST CROSSING - PHASE III,32.94817584,-96.99700582,0,DALLAS,0,,,,,,,,
1652915194,2,"TX SH 180 & Boswell Dr  Fort Worth, TX 76112",116541,116541,3,2024.3,2023.3,UC,W,--streetnum is:   to   | building name is A,,32.7325911,-97.1976841,0,FORTWO,0,,,,,,,,
1652911273,2,"5490 Highway 42   Ellenwood, GA 30294",265775,265775,1,2025.1,2024.1,UC,W,CLAYTON TECHNOLOGY CENTER,,33.605696,-84.299777,36,ATLANT,1,,,,,,,,
1652906844,2,"1960 Lakepointe Dr  Lewisville, TX 75057",29477,29477,2,2025.1,2024.1,UC,W,BUILDING B,,33.0144581,-96.977056,28,DALLAS,0,,,,,,,,
1652917325,2,"1303 Industrial Dr  Royse City, TX 75189",10000,10000,2,2024.2,2023.4,UC,W,,,32.9851225,-96.3048778,0,DALLAS,4,,,,,,,,
1652915232,2,"125 Southwestern Blvd  Coppell, TX 75019",24620,24620,1,2024.2,2023.4,UC,W,BUILDING K,PARK WEST CROSSING - PHASE III,32.94769154,-96.99431687,0,DALLAS,0,,,,,,,,
1652925116,2,"Business Park Dr  Hudson Oaks, TX 76087",24248,24248,1,2024.2,2024.1,UC,W,--streetnum is: TBD to   | building name is,,32.7589287,-97.7072168,24,FORTWO,2,,,,,,,,
1652911695,2,"3120 E Interstate 20   Hudson Oaks, TX 76087",39000,39000,2,2024.4,2023.4,UC,W,BUILDING 1,3120 E I-20,32.751188,-97.7019431,0,FORTWO,0,,,,,,,,
1652907552,2,"3025 Outlet Pky  Grand Prairie, TX 75052",20000,0,3,2024.2,2023.2,UC,W,,,32.680888,-97.057859,0,FORTWO,0,,,,,,,,
1652900811,2,"2741 Basswood Blvd  Saginaw, TX 76131",130750,130750,4,2024.2,2023.2,UC,W,BUILDING 4,,32.8778849,-97.32135,32,FORTWO,0,,,,,,,,
1652887677,2,"1401 E Lookout Dr  Richardson, TX 75082",102273,102273,7,2024.3,2022.3,UC,W,BUILDING A,,32.9862717,-96.6961283,28,DALLAS,1,,,,,,,,
1652914147,2,"6533 McEver Rd  Flowery Branch, GA 30542",221590,221590,2,2024.2,2023.2,UC,W,BUFORD TRADE CENTER,,34.165075,-83.958056,0,ATLANT,0,,,,,,,,
1652926528,2,"SEC Loop 820 & N Beach St   Haltom City, TX 76117",160586,160586,1,2025.1,2024.1,UC,W,--streetnum is:   to   | building name is MERCANTILE 820 LOGISTICS PARK - BUILDING 3,MERCANTILE 820 LOGISTICS PARK,32.8382208,-97.2860735,32,FORTWO,0,,,,,,,,
1652912627,2,"130 Business Parkway   Hudson Oaks, TX 76087",26990,19990,3,2024.2,2023.3,UC,W,,,32.75864,-97.7073026,17,FORTWO,4,,,,,,,,
1652886053,2,"4255 Cantrell Rd NW Acworth, GA 30101",26000,20000,7,2024.2,2023.4,UC,W,,,34.06148,-84.653499,0,ATLANT,3,,,,,,,,
1652897664,2,"ICC-35   Denton, TX 76207",366926,366926,6,2024.3,2023.2,UC,W,--streetnum is:   to   | building name is BUILDING 2,ICC-35,33.258326,-97.181522,36,DALLAS,0,,,,,,,,
1652887966,2,"1400 Senoia Rd  Tyrone, GA 30290",30000,30000,1,2025.1,2024.1,UC,W,74 S BUSINESS PARK - 200,,33.493502,-84.580774,24,ATLANT,0,,,,,,,,
1652915198,2,"TX SH 180 & Boswell Dr  Fort Worth, TX 76112",202242,202242,3,2024.3,2023.3,UC,W,--streetnum is:   to   | building name is C,,32.7326017,-97.1949056,36,FORTWO,0,,,,,,,,
1652926524,2,"SEC Loop of 820 & N Beach   Haltom City, TX 76137",136473,136473,1,2025.1,2024.1,UC,W,--streetnum is:   to   | building name is MERCANTILE 820 LOGISTICS PARK - BUILDING 2,MERCANTILE 820 LOGISTICS PARK,32.8359535,-97.2880526,32,FORTWO,0,,,,,,,,
1652864940,2,"HWY 287   Waxahachie, TX 75165",1058635,372321,2,2025.1,2024.1,UC,W,--streetnum is: TBD to   | building name is,,32.41564371,-96.83148189,40,DALLAS,0,,,,,,,,