PropertyID,VendorID,Address,Size_sf,Available_sf,QuartersTrackedInDatabase,EstimatedCompletionYearQuarter,YearQuarterGroundBroken,BuildingStatusCode,SubPropertyType,buildingName,complex,Latitude,Longitude,CeilingHeight,MarketCode,BuildingStage
1652888862,2,"501 NE 181st St  North Miami Beach, FL 33162",130030,130030,5,2024.2,2023.1,UC,W,MIAMI I-95 DISTRIBUTION CENTER,,25.942085,-80.190785,32,MIAMI,4
1652902999,2,"651 W Wildlife Parkway   Grand Prairie, TX 75050",258120,258120,5,2024.3,2023.1,UC,W,WILDLIFE 14,WILDLIFE COMMERCE PARK,32.776839,-97.009772,36,FORTWO,1
1652860450,2,"Route 301   Upper Marlboro, MD 20774",311040,311040,5,2024.4,2022.4,UC,W,--streetnum is:   to   | building name is BUILDING 1,NATIONAL CAPITAL BUSINESS PARK,38.8711395,-76.7393996,36,WASHIN,1
1652896535,2,"355 Ballenger Center Dr  Frederick, MD 21703",45690,45690,5,2024.2,2023.1,UC,W,BUILDING C,BALLENGER CREEK BUSINESS CENTER,39.39626926,-77.42830896,0,WASHIN,0
1652925929,2,"10890 Bennett Pkwy ext  Zionsville, IN 46077",30000,23000,1,2025.1,2024.1,UC,W,,BENNETT TECHNOLOGY PARK,39.943226,-86.248536,20,INDIAN,4
1652893038,2,"CR 550 S & CR 475 E   Lebanon, IN 46052",400576,400576,7,2024.2,2022.4,UC,W,--streetnum is:   to   | building name is PARK 130 - BLDG 7,,39.9596458,-86.3806032,36,INDIAN,1
1652891189,2,"McCrimmon Pky  Morrisville, NC 27560",168000,168000,3,2024.4,2023.1,UC,W,PATHWAY TRIANGLE | BUILDING 1,,35.8476023,-78.8192145,40,RALEIG,0
1652910684,2,"2100 State Highway 121   Grapevine, TX 76051",182280,182280,3,2024.4,2023.2,UC,W,,,32.9607794,-97.0364113,36,FORTWO,0
1652852883,2,"4243 Singleton Blvd  Dallas, TX 75212",196996,0,5,2024.2,2023.2,UC,W,BUILDING 3,TRINITY WEST,32.787097,-96.886384,28,DALLAS,1
1652901973,2,"1601 Hamlin Rd  Durham, NC 27704",74400,74400,5,2024.2,2023.2,UC,W,BUILDING E,,36.0223414,-78.8735121,24,RALEIG,0
1652864940,2,"HWY 287   Waxahachie, TX 75165",1058635,372321,2,2025.1,2024.1,UC,W,#ERROR!,,32.41564371,-96.83148189,40,DALLAS,0
1652878266,2,"1400 Zoo Pky  Jacksonville, FL 32218",235733,235733,2,2024.4,2023.3,UC,W,BUILDING B1,,30.425388,-81.616574,0,JACKSO,0
1652880652,2,"10400 Frisco   Frisco, TX 75034",74600,2900,10,2024.2,2021.4,UC,W,AIP FRISCO,,33.16689414,-96.83341217,18,DALLAS,1
1652913584,2,"800 N Sherman Dr  Indianapolis, IN 46201",100000,0,3,2024.3,2023.1,UC,W,,,39.778295,-86.102695,0,INDIAN,2
1652913891,2,"189 Knowlton   Savannah, GA 31407",199565,199565,1,2024.4,2024.1,UC,W,,CROSSROADS BUSINESS PARK,32.153325,-81.23338,32,SAVANN,0
1652918017,2,"4710 E 142nd St  Grandview, MO 64030",14000,14000,1,2024.4,2024.1,UC,W,,,38.8689241,-94.5374539,0,KANSAS,4
1652894644,2,"2580 W Walnut Hill Ln  DFW Airport, TX 75261",509668,509668,6,2025.1,2023.2,UC,W,BUILDING 5,,32.864253,-97.0334037,0,FORTWO,0
1652905444,2,"Bldg. 3   Jacksonville, FL 32226",198000,198000,2,2024.4,2023.4,UC,W,#ERROR!,,30.4084691,-81.6317565,0,JACKSO,0
1652910975,2,"186 Acres Dr  Ladson, SC 29456",21750,21750,3,2024.4,2023.2,UC,W,,,33.002043,-80.100075,0,CHRLTN,0
1652921979,2,"Powhatan Rd  Clayton, NC 27520",10000,0,1,2025.1,2023.4,UC,W,#ERROR!,,35.610581,-78.3956013,0,RALEIG,0
1652904364,2,"245 Shepardstown Ct  Purcellville, VA 20132",56000,7700,2,2024.2,2023.4,UC,W,,,39.147481,-77.720025,0,WASHIN,0
1652903664,2,"8100 NW 74th St  Miami, FL 33166",76605,76605,5,2024.2,2022.1,UC,W,PALMETTO 74 BUILDING D,PALMETTO 74,25.840408,-80.328905,32,MIAMI,2
1652906844,2,"1960 Lakepointe Dr  Lewisville, TX 75057",29477,29477,2,2025.1,2024.1,UC,W,BUILDING B,,33.0144581,-96.977056,28,DALLAS,0
1652903663,2,"8100 NW 74th St  Miami, FL 33166",69140,69140,5,2024.2,2022.1,UC,W,PALMETTO 74 BUILDING C,PALMETTO 74,25.840408,-80.328905,32,MIAMI,2
1652916988,2,"1800 Pipeline rd  Euless, TX 76040",19350,19350,2,2024.2,2023.4,UC,W,,,32.820008,-97.1122179,22,FORTWO,0
1652884027,2,"11250 W 36th Ave  Hialeah, FL 33018",297918,297918,6,2024.2,2022.4,UC,W,MIDPOINT LOGISTICS,,25.9230287,-80.3596397,32,MIAMI,0
1652903451,2,"621 Bohannon Rd  Fairburn, GA 30213",316072,316072,2,2024.4,2023.4,UC,W,OAKMONT 85 SOUTH,,33.54357548,-84.59187974,36,ATLANT,1
1652922763,2,"Old Covington Hwy   Conyers, GA 30013",212745,212745,1,2025.1,2024.1,UC,W,--streetnum is:   to   | building name is ROCKDALE 20 EAST BUSINESS CENTER,,33.6498447,-83.9865374,32,ATLANT,0
1652883516,2,"4043 Hanoverville Rd  Bethlehem, PA 18020",288576,288576,5,2024.2,2023.1,UC,W,"LEHIGH VALLEY TRADE CENTER III, BUILDING D",,40.6877588,-75.3559703,36,ALLENT,2
1652884843,2,"Harry McKillop Blvd & Old   McKinney, TX 75069",304576,0,6,2024.2,2022.3,UC,W,--streetnum is:   to   | building name is M-75 COMMERCE CENTER,,33.1685414,-96.6083901,36,DALLAS,1
1652920300,2,"14101 NW 112th Ave  Hialeah Gardens, FL 33018",133762,133762,2,2024.3,2023.3,UC,W,,,25.90184,-80.3795699,36,MIAMI,4
1652874231,2,"8 Camp Hall Rd  Ridgeville, SC 29472",183757,183757,4,2024.2,2023.1,UC,W,CAMP HALL CAMPUS 8 BUILDING C,CAROLINA TRADEPORT,33.1513115,-80.298872,32,CHRLTN,0
1652886522,2,"22610 W 167th St  Olathe, KS 66062",147955,0,7,2024.2,2023.1,UC,W,LONE ELM COMMERCE BUILDING 4,,38.826475,-94.847276,32,KANSAS,4
1652900810,2,"2733 Basswood Blvd  Saginaw, TX 76131",130750,130750,4,2024.2,2023.2,UC,W,BUILDING 3,BASSWOOD 35 INDUSTRIAL PARK,32.8767982,-97.3213179,32,FORTWO,0
1652876762,2,"10301 Philadelphia Rd  White Marsh, MD 21162",34000,34000,2,2024.3,2023.4,UC,W,BLDG I- PHASE I,,39.372482,-76.440786,20,BALTIM,2
1652922891,2,"6525 Business 78   Nevada, TX 75173",10500,10500,1,2024.2,2023.4,UC,W,,,33.066681,-96.42329,17,DALLAS,1
1652906676,2,"Powell Rd  Gibsonton, FL 33534",160000,160000,1,2024.3,2024.1,UC,W,TAMPA REGIONAL INDUSTRIAL - BLDG 100,"3202 POWELL ROAD, GIBSONTON, FL",27.8046515,-82.3821675,32,TAMPA,0
1652791755,2,"9571 Palmetto Commerce Pky  Ladson, SC 29456",20000,20000,1,2024.3,2024.1,UC,W,LANDMARK BUSINESS PARK,,32.97703552,-80.12590027,0,CHRLTN,4
1652897779,2,"3400 NW 107 Ave  Doral, FL 33172",132000,0,2,2024.4,2023.4,UC,W,BRIDGE POINT DORAL BUILDING 6,BRIDGE POINT DORAL,25.8079745,-80.3717562,36,MIAMI,0
1652917117,2,"7815 Jetstar Dr  Irving, TX 75063",69160,69160,1,2024.3,2024.1,UC,W,TRISTAR BUSINESS PARK,,32.913254,-97.0031873,32,DALLAS,0
1652924318,2,"1901 Peachtree Industrial Blvd  Buford, GA 30518",45000,21000,1,2025.1,2024.1,UC,W,,,34.124927,-84.017175,20,ATLANT,0
1652917708,2,"3451 N Interstate 35   Denton, TX 76207",180657,180657,2,2024.3,2023.4,UC,W,,,33.2237701,-97.1733153,32,DALLAS,0
1652919522,2,"440 Dundas Dr  Jacksonville, FL 32218",48000,48000,2,2024.2,2023.3,UC,W,,,30.4256966,-81.6515759,0,JACKSO,0
1652896320,2,"2202 Franklin Ave  Mesquite, TX 75150",49033,38500,3,2024.2,2023.3,UC,W,,,32.7942788,-96.6140972,18,DALLAS,0
1652918768,2,"2129 Bardin Rd  Grand Prairie, TX 75052",51760,51760,2,2024.2,2023.1,UC,W,,,32.6700782,-97.0353674,24,DALLAS,0
1652867113,2,"I-75 & Pasco Rd   San Antonio, FL 33576",1383296,0,3,2024.2,2023.1,UC,W,#ERROR!,,28.3327472,-82.3181042,0,TAMPA,1
1652912630,2,"8593 NW 96th St  Medley, FL 33166",137074,137074,1,2024.2,2023.1,UC,W,SYCAMORE LOGISTICS CENTER BUILDING A,SYCAMORE LOGISTICS CENTER,25.8612066,-80.3360908,36,MIAMI,2
1652882561,2,"Henderson Way  Plant City, FL 33563",533347,533347,1,2024.3,2023.4,UC,W,#ERROR!,,28.0162972,-82.0893939,36,TAMPA,4
1652927447,2,"1217 S County Line Rd  Plant City, FL 33566",35000,0,1,2025.1,2024.1,UC,W,,,28.0031263,-82.057568,0,TAMPA,0
1652909450,2,"4557 J D Mouser Pky  Alvarado, TX 76009",26400,26400,3,2024.3,2023.1,UC,W,,,32.51881534,-97.1546125,0,FORTWO,4
1652927446,2,"1325 S County Line Rd  Plant City, FL 33566",75000,0,1,2025.1,2024.1,UC,W,,,28.0031038,-82.0569639,0,TAMPA,0
1652866771,2,"4700 N Arlington Ave  Kansas City, MO 64161",203899,0,1,2024.4,2023.2,UC,W,HMBC LOGISTICS V,,39.1778194,-94.4676092,32,KANSAS,4
1652898349,2,"138 Strathmore Rd  Summerville, SC 29483",31400,25000,5,2024.2,2022.4,UC,W,,,33.08447481,-80.20913059,0,CHRLTN,0
1652924871,2,"7605 SR 54   New Port Richey, FL 34653",68000,0,1,2024.2,2023.1,UC,W,,,28.2185748,-82.6890792,0,TAMPA,0
1652880893,2,"3150 Couden Dr  Lebanon, IN 46052",702000,702000,6,2024.4,2022.3,UC,W,,,39.9796432,-86.4102952,40,INDIAN,3
1652908029,2,"3501 US 64 Hwy W Apex, NC 27502",27000,0,3,2024.2,2023.2,UC,W,,,35.742527,-78.930038,0,RALEIG,2
1652927325,2,"6370 Rabbit Run Ln  Mebane, NC 27302",120000,0,1,2024.2,2023.1,UC,W,,,36.07551347,-79.22597071,0,RALEIG,0
1652918835,2,"4560 J D Mouser Pky  Alvarado, TX 76009",10000,7500,2,2024.3,2023.1,UC,W,,,32.5208459,-97.1567378,0,FORTWO,0
1652892515,2,"1037 Cassville White Rd  White, GA 30184",139950,139950,7,2024.2,2022.3,UC,W,BUILDING 2,,34.2721412,-84.80108675,32,ATLANT,0
1652901948,2,"25435 Pleasant Valley Rd  Chantilly, VA 20152",130020,130020,5,2024.2,2023.1,UC,W,,,38.914585,-77.475864,32,WASHIN,2
1652815745,2,"30700 W 183rd St  Gardner, KS 66030",1006016,1006016,3,2025.1,2023.1,UC,W,INLAND PORT IX,,38.79660583,-94.93841183,40,KANSAS,4
1652909796,2,"9600 E 400 N   Brownsburg, IN 46112",580884,580884,2,2025.1,2023.2,UC,W,--streetnum is:   to   | building name is PARK 74 COMMERCE CENTER BUILDING A,,39.8235656,-86.3539397,40,INDIAN,1
1652877628,2,"SWC Pleasant St. & Union   Noblesville, IN 46060",41657,41657,7,2024.2,2022.2,UC,W,--streetnum is:   to   | building name is BUILDING 2,,40.0398536,-85.9794786,24,INDIAN,0
1652883256,2,"Granite Lane & Peachtree   Suwanee, GA 30024",30000,0,4,2024.4,2023.2,UC,W,#ERROR!,,34.0751402,-84.1632618,0,ATLANT,0
1652900984,2,"155 Tiger   Rhome, TX 76078",100000,0,5,2024.2,2023.1,UC,W,,114 INDUSTRIAL,33.0404071,-97.4242121,0,FORTWO,1
1652827708,2,"4141 W 91st Pl  Hialeah, FL 33018",232620,232620,7,2024.3,2022.2,UC,W,BEACON LOGISTICS PARK- BUILDING C,BEACON LOGISTICS PARK,25.906743,-80.3679533,36,MIAMI,0
1652889892,2,"2925 Valley View Ln  DFW Airport, TX 75261",739716,739716,7,2024.4,2022.4,UC,W,BUILDING 1,DFW LOGISTICS HUB,32.8870966,-97.0048138,40,DALLAS,0
1652900845,2,"4700 S Hardin Blvd  McKinney, TX 75070",95179,0,5,2024.2,2022.3,UC,W,BUILDING 2,MCKINNEY 121,33.15420331,-96.66351025,0,DALLAS,1
1652912642,2,"1 Amity Ditch Rd  Franklin, IN 46131",700000,0,3,2024.3,2022,UC,W,,,39.4911519,-86.0051471,0,INDIAN,0
1652901979,2,"1607 Hamlin Rd  Durham, NC 27704",192000,64000,2,2025.1,2024.1,UC,W,BUILDING F,,36.0224259,-78.8735147,32,RALEIG,0
1652865517,2,"Queens Court West   Upper Marlboro, MD 20774",184140,184140,5,2024.2,2022.4,UC,W,--streetnum is:   to   | building name is BUILDING 10,NATIONAL CAPITAL BUSINESS PARK,38.8711395,-76.739399,36,WASHIN,1
1652870600,2,"14900 Elion Way  Brandywine, MD 20613",801610,801610,9,2024.4,2023.2,UC,W,ELP DC BUILDING 1,ELION LOGISTICS PARK,38.6718978,-76.8641873,40,WASHIN,0
1652896534,2,"353 Ballenger Center Dr  Frederick, MD 21703",38476,38476,5,2024.2,2023.1,UC,W,BUILDING B,BALLENGER CREEK BUSINESS CENTER,39.3962698,-77.42831176,0,WASHIN,0
1652896723,2,"1220 Sage Hill Pky  Forney, TX 75126",1024549,1024549,7,2024.3,2023.2,UC,W,BUILDING 1,GATEWAY CROSSING LOGISTICS PARK,32.7293798,-96.3931773,40,DALLAS,1
1652922162,2,"N. Frontage Road   Plant City, FL 33563",247520,247520,1,2025.1,2024.1,UC,W,BUILDING 200,PARK 4 LOGISTICS CENTER,28.0434801,-82.1117152,32,TAMPA,1
1652913826,2,"3405 International Golf Pky  Saint Augustine, FL 32092",110600,110600,1,2025.1,2024.1,UC,W,--streetnum is: 3405B to   | building name is BUILDING 3,IGP/95 LOGISTICS PARK,29.9669847,-81.4798495,28,JACKSO,0
1652901482,2,"11335 Lewis Braselton Blvd  Braselton, GA 30517",114780,114780,1,2024.3,2023.3,UC,W,BRASELTON TECHNOLOGY CENTER,,34.118603,-83.742764,32,ATLANT,4
1652839830,2,"601 Bloomingdale Rd  Bloomingdale, GA 31302",466180,466180,4,2024.3,2023.3,UC,W,LOGISTICS 16 - BLDG 100,LOGISTICS 16 @ OTTAWA FARMS,32.115913,-81.298102,36,SAVANN,0
1652923223,2,"151 Plug in Dr  Ridgeville, SC 29472",152880,152880,1,2024.2,2022.3,UC,W,,,32.9297337,-80.3933102,32,CHRLTN,0
1652908847,2,"S 2nd Ave and Klein Tools   Mansfield, TX 76063",25822,0,2,2024.2,2023.3,UC,W,#ERROR!,,32.5398695,-97.139631,0,FORTWO,0
1652907799,2,"1075 Lower Woolsey Rd  Hampton, GA 30228",1392166,0,3,2024.2,2023.1,UC,W,,,33.3696127,-84.3147171,0,ATLANT,1
1652924854,2,"14555 Softwind Ln  Spring Hill, FL 34610",50000,0,1,2025.1,2024.1,UC,W,,,28.369197,-82.552309,0,TAMPA,0
1652927457,2,"1599 Dash Dr  Fuquay Varina, NC 27526",250000,0,1,2024.4,2023.2,UC,W,,,35.581426,-78.774962,0,RALEIG,0
1652900995,2,"2248 SE Loop 820   Fort Worth, TX 76140",53780,53780,3,2024.2,2023.2,UC,W,E,,32.6607717,-97.274505,0,FORTWO,0
1652917314,2,"528 Sunbury Rd   Midway, GA 31320",33000,12481,2,2024.2,2023.1,UC,W,,TRADEPORT EAST,31.780554,-81.3575305,32,SAVANN,0
1652871050,2,"10601 World Trade Blvd  Raleigh, NC 27617",30475,22992,2,2024.3,2023.4,UC,W,,,35.897466,-78.816845,24,RALEIG,0
1652851304,2,"Route 33   Bethlehem, PA 18045",70000,70000,3,2024.4,2023.1,UC,W,--streetnum is:   to   | building name is BUILDING 4,PENN CENTER 33,40.6703092,-75.297478,0,ALLENT,1
1652900992,2,"2224 SE Loop 820   Fort Worth, TX 76140",20088,20088,3,2024.2,2023.2,UC,W,C,,32.6607717,-97.274505,21,FORTWO,0
1652885024,2,"550 Hooper Rd  Wylie, TX 75098",12750,12750,8,2025.1,2022.1,UC,W,BUILDING 4,HENSLEY PARK,33.00496963,-96.57839382,20,DALLAS,0
1652914482,2,"8250 Eastern Ave  Baltimore, MD 21224",442200,442200,2,2024.3,2023.4,UC,W,DIAMOND LOGISTICS CENTER,,39.284609,-76.571015,40,BALTIM,4
1652912882,2,"Park 33 @ Lehigh Valley E Rd  Easton, PA 18064",396025,396025,2,2024.3,2023.4,UC,W,--streetnum is:   to   | building name is BUILDING 2,,40.73522,-75.2787859,0,ALLENT,1
1652896312,2,"4860 Forbes Blvd  Lanham, MD 20706",11527,11527,7,2024.2,2022.3,UC,W,,,38.956191,-76.836984,0,WASHIN,4
1652909264,2,"2201 NE Town Centre Blvd   Lees Summit, MO 64064",250000,187500,3,2024.4,2023.2,UC,W,#ERROR!,,38.95192135,-94.36886654,36,KANSAS,1
1652897774,2,"3600 NW 112 Ave  Doral, FL 33172",366528,366528,2,2024.4,2023.4,UC,W,BRIDGE POINT DORAL BUILDING 1,,25.8090877,-80.3752191,36,MIAMI,0
1652886266,2,"4826 Hwy 78   Saint George, SC 29477",978120,978120,6,2024.3,2022.4,UC,W,BUILDING 1,PORT 95 INDUSTRIAL PARK,33.178379,-80.5327324,40,CHRLTN,0
1652906167,2,"1000 Spinks Ct  Lewisville, TX 75067",60000,26167,3,2024.3,2023.3,UC,W,,,32.9970915,-97.0167297,29,DALLAS,0
1652887090,2,"8100 Palmetto Commerce Pky  Ladson, SC 29456",1321840,1321840,6,2024.4,2022.4,UC,W,PALMETTO LOGISTICS CENTER,,32.95643279,-80.08794887,41,CHRLTN,0
1652900946,2,"Holly Springs New Hill Rd  Holly Springs, NC 27540",808993,0,5,2024.2,2021.1,UC,W,#ERROR!,,35.6528259,-78.8750039,0,RALEIG,1
1652924377,2,"3770 Francis Cir  Alpharetta, GA 30004",33750,0,1,2024.4,2023.2,UC,W,BUILDING 400,,34.146663,-84.244045,0,ATLANT,0
1652908532,2,"1500 Progress Industrial Blvd  Lawrenceville, GA 30043",163170,163170,2,2025.1,2023.3,UC,W,,,33.9960678,-83.9604705,32,ATLANT,4
1652908748,2,"Rockhill Pkwy   Frisco, TX 75035",100500,0,3,2025.1,2022.4,UC,W,#ERROR!,,33.2091993,-96.8079226,0,DALLAS,0
1652887790,2,"121 Technology Park   Allen, TX 75013",94413,0,4,2024.2,2023.2,UC,W,#ERROR!,121 TECHNOLOGY PARK,33.1476119,-96.6663539,32,DALLAS,1
1652897495,2,"1500 N Mayhill Rd  Denton, TX 76208",77981,77981,2,2024.2,2023.3,UC,W,MAYHILL 380 BUSINESS PARK - BUILDING 3,,33.21355139,-97.08342433,0,DALLAS,4
1652871137,2,"Veteran Pky  Savannah, GA 31405",982800,0,7,2024.3,2022.2,UC,W,--streetnum is:   to   | building name is CENTRAL PORT LOGISTICS CENTER BUILDING 11,CENTRAL PORT LOGISTICS CENTER,32.01658,-81.1721686,36,SAVANN,0
1652896178,2,"1000 N Main St  Mansfield, TX 76063",416000,0,4,2024.2,2023.1,UC,W,"MOUSER ELECTRONICS, INC. EXPANSION",,32.578992,-97.147336,0,FORTWO,4
1652905346,2,"3155 N Highway 161   Grand Prairie, TX 75050",52536,52536,2,2024.3,2023.4,UC,W,BUILDING A,COMMERCE CENTER 161,32.801436,-97.016799,0,FORTWO,4
1652906837,2,"1960 Lakepointe Dr  Lewisville, TX 75057",44952,44952,1,2024.3,2024.1,UC,W,BUILDING A,,33.014452,-96.976018,28,DALLAS,0
856332174,2,"4200 Perimeter Industrial Pky W Jacksonville, FL 32219",185640,185640,4,2024.2,2023.2,UC,W,PERIMETER WEST INDUSTRIAL PARK BLDG 3,PERIMETER WEST INDUSTRIAL PARK,30.37418716,-81.75746173,32,JACKSO,4
1652851308,2,"Route 33   Bethlehem, PA 18045",104000,104000,3,2024.4,2023.1,UC,W,--streetnum is:   to   | building name is BUILDING 2,PENN CENTER 33,40.67077,-75.297429,0,ALLENT,2
1652904760,2,"9209 Palm River Rd  Tampa, FL 33619",85500,42732,4,2024.2,2023.2,UC,W,EAST TAMPA COMMERCE CENTER BLDG 300,EAST TAMPA COMMERCE CENTER,27.9440108,-82.3519478,32,TAMPA,0
1652923062,2,"2917 Chesser Boyer Rd  Fort Worth, TX 76111",156866,156866,1,2024.4,2024.1,UC,W,CHESSER 35 BUILDING A,,32.804245,-97.302801,32,FORTWO,0
1652901738,2,"2807 E Centerville Rd  Garland, TX 75040",150926,150926,3,2024.3,2023.3,UC,W,2807 E CENTERVILLE,,32.90558308,-96.60025787,36,DALLAS,2
1652919524,2,"440 Dundas Dr  Jacksonville, FL 32218",30000,30000,2,2024.2,2023.3,UC,W,,,30.4260458,-81.6508543,0,JACKSO,0
1652922154,2,"N. Frontage Road   Plant City, FL 33563",218960,218960,1,2025.1,2024.1,UC,W,BUILDING 100,PARK 4 LOGISTICS CENTER,28.0434896,-82.110814,32,TAMPA,0
1652923075,2,"6850 Cedar Ranch Dr.   Dallas, TX 75241",59970,59970,1,2025.1,2023.4,UC,W,,,32.6533336,-96.7641291,32,DALLAS,0
1652857162,2,"3363 Gun Club Rd   Nazareth, PA 18064",1006050,1006050,7,2024.2,2022.3,UC,W,BUILDING 1,EAST VALLEY LOGISTICS PARK,40.7233355,-75.3564983,40,ALLENT,0
1652908218,2,"Route 92   Platte City, MO 64079",748833,748833,3,2024.3,2023.1,UC,W,#ERROR!,,39.3613733,-94.7706017,36,KANSAS,4
1652844843,2,"7222 Cross Park Dr  North Charleston, SC 29418",15000,0,7,2024.2,2022.3,UC,W,BUILDING A,,32.91801177,-80.0719093,0,CHRLTN,3
1652872275,2,"Greenfield Farms Building   Greenfield, IN 46140",450000,450000,6,2024.3,2022.2,UC,W,#ERROR!,GREENFIELD FARMS,39.813715,-85.9448659,0,INDIAN,0
1652881832,2,"Louie Pepper Dr  Clinton, MD 20735",90000,0,6,2024.2,2022.4,UC,W,--streetnum is:   to   | building name is BUILDING 2,,38.7782334,-76.8658385,32,WASHIN,0
1652793437,2,"7685 Solley Rd  Glen Burnie, MD 21060",80100,0,1,2024.4,2023.4,UC,W,BUILDING IV,BRANDON WOODS III,39.16648641,-76.55963503,32,BALTIM,0
1652907653,2,"3120 Camp Bowie Blvd  Fort Worth, TX 76116",100000,0,3,2024.2,2023.1,UC,W,,,32.7510626,-97.3622352,12,FORTWO,4
1652901975,2,"1507 Hamlin Rd  Durham, NC 27704",25200,25200,5,2024.2,2023.2,UC,W,BUILDING G,,36.0223218,-78.8736596,24,RALEIG,0
1652924292,2,"2650 S Great Southwest Pky  Grand Prairie, TX 75052",134059,134059,1,2024.4,2024.1,UC,W,BUILDING 2,PARK SOUTH GSW,32.708603,-97.045713,24,FORTWO,3
1652883387,2,"10405 NW 19th St  Doral, FL 33172",40141,40141,7,2024.2,2022.4,EX,W,,,25.791951,-80.366064,32,MIAMI,4
1652907111,2,"7653 Solley Rd  Glen Burnie, MD 21060",80110,80110,4,2024.2,2023.3,UC,W,,,39.166669,-76.5578,32,BALTIM,0
1652905332,2,"8332 Cypress Plaza Dr  Jacksonville, FL 32256",183345,76105,2,2024.3,2023.3,UC,W,BUTLER 95 LOGISTICS CENTER,,30.2369666,-81.5885318,32,JACKSO,0
1652925922,2,"10890 Bennett Pkwy Pky  Zionsville, IN 46077",30000,0,1,2024.4,2024.1,UC,W,,,39.943226,-86.248536,0,INDIAN,4
1652906157,2,"2630 Gravel Springs Rd  Buford, GA 30519",1001424,1001424,2,2025.1,2023.2,UC,W,GRAVEL SPRINGS LOGISTICS CENTER,,34.06450813,-83.94861863,40,ATLANT,0
1652906148,2,"W Ten Rd  Mebane, NC 27302",265200,0,4,2024.3,2022.2,UC,W,BUILDING 3,BUCKHORN II INDUSTRIAL PARK,36.0730409,-79.2312608,0,RALEIG,0
1652907552,2,"3025 Outlet Pky  Grand Prairie, TX 75052",20000,0,3,2024.2,2023.2,UC,W,,,32.680888,-97.057859,0,FORTWO,4
1652893436,2,"6385 Cross Roads   Cumming, GA 30041",45000,30000,7,2024.2,2022.3,UC,W,BUILDING 200,,34.3185978,-84.0573991,18,ATLANT,0
1652926669,2,"5 Jamison Ct  Terrell, TX 75160",109847,109847,1,2024.2,2023.3,UC,W,EXPANSION,,32.72868,-96.3202369,32,DALLAS,4
1652902104,2,"1211 Old Hopewell Rd  Tampa, FL 33619",80000,40000,4,2024.2,2023.2,UC,W,,,27.956061,-82.353434,32,TAMPA,2
1652919214,2,"4891 E Front St  Kansas City, MO 64120",10000,0,1,2024.4,2024.1,UC,W,,,39.1301019,-94.5235572,0,KANSAS,2
1652902192,2,"421 Milburnie Lake Dr  Raleigh, NC 27610",289632,289632,5,2024.3,2023.1,UC,W,BUILDING 1,,35.7979548,-78.528128,36,RALEIG,0
1652848080,2,"24525 W 43rd St  Shawnee Mission, KS 66226",854306,323851,1,2024.4,2023.4,UC,W,BUILDING 3,HEARTLAND LOGISTICS PARK,39.05065789,-94.87351802,36,KANSAS,1
1652897666,2,"ICC-35   Denton, TX 76207",702766,702766,6,2024.4,2023.3,UC,W,--streetnum is:   to   | building name is BUILDING 3,ICC-35,33.2583305,-97.1828792,0,DALLAS,0
1652904239,2,"1250 W Oakdale Rd  Grand Prairie, TX 75050",70050,70050,5,2024.2,2023.3,EX,W,,,32.793454,-97.020846,28,FORTWO,0
1652892397,2,"Charleston Regional Pky   Charleston, SC 29492",50000,0,2,2024.4,2023.4,UC,W,#ERROR!,,32.9160958,-79.9127579,0,CHRLTN,1
1652926268,2,"8501 NW 96th St  Medley, FL 33166",173382,173382,1,2024.2,2023.1,UC,W,SYCAMORE LOGISTICS CENTER - BLDG B,SYCAMORE LOGISTICS CENTER,25.86155066,-80.33386243,36,MIAMI,4
1652909984,2,"221 Airport Dr  Mansfield, TX 76063",203000,203000,3,2024.2,2023.1,UC,W,BUILDING 2,,32.552196,-97.140224,36,FORTWO,4
1652895177,2,"3175 Park of Commerce Blvd  Homestead, FL 33035",89427,89427,1,2024.4,2024.1,UC,W,BUILDING 1,GATEWAY SOUTH DADE,25.4608543,-80.433102,32,MIAMI,0
1652898071,2,"13227 Old Denton Rd  Fort Worth, TX 76177",17148,0,5,2024.2,2022.1,UC,W,,TEXAS FRONTIER PARK,32.9689797,-97.3003969,0,FORTWO,1
1652904999,2,"2475 Hwy 155   Locust Grove, GA 30248",427200,427200,4,2024.3,2023.2,UC,W,MCDONOUGH 75 LOGISTICS CENTER,,33.3763632,-84.1771907,36,ATLANT,0
1652915436,2,"7300 Corporate Center Dr  Hanover, MD 21076",228014,228014,2,2024.4,2023.4,UC,W,,,39.183042,-76.698443,0,BALTIM,0
1652914148,2,"6533 McEver Rd  Flowery Branch, GA 30542",176305,0,2,2024.2,2023.2,EX,W,BUFORD TRADE CENTER,,34.165075,-83.958056,0,ATLANT,0
1652875607,2,"44080 Little River Tpke  Chantilly, VA 20152",70400,70400,7,2024.2,2022.3,UC,W,BECCA SQUARE WAREHOUSE,,38.91272829,-77.47647808,24,WASHIN,1
1652851133,2,"3701 Norwich St  Dallas, TX 75212",763960,378826,5,2024.4,2023.2,UC,W,BUILDING 2,TRINITY WEST,32.787097,-96.886384,40,DALLAS,2
1652915224,2,"TX SH 180 & Boswell Dr  Fort Worth, TX 76112",388905,388905,1,2024.4,2023.3,UC,W,#ERROR!,,32.732463,-97.1924442,36,FORTWO,0
1652902196,2,"431 Milburnie Lake Dr  Raleigh, NC 27610",221363,0,5,2024.3,2023.1,UC,W,BUILDING 2,KNIGHTDALE GATEWAY,35.7982941,-78.5280743,36,RALEIG,0
1652918839,2,"4580 J D Mouser Pky  Alvarado, TX 76009",12000,12000,2,2024.3,2023.1,UC,W,,,32.5215695,-97.1560054,0,FORTWO,0
1652918537,2,"4335 W Northgate Dr  Irving, TX 75062",100500,100500,2,2024.3,2023.4,UC,W,,,32.8577239,-97.015549,32,DALLAS,0
1652878190,2,"410 Tradeport Dr  Summerville, SC 29483",354202,354202,9,2024.3,2023.3,UC,W,BUILDING 3,TRADEPORT BUSINESS PARK,33.0969353,-80.1980254,0,CHRLTN,3
1652901972,2,"1613 Hamlin Rd  Durham, NC 27704",103200,103200,2,2025.1,2024.1,UC,W,BUILDING D,,36.0223349,-78.8733646,0,RALEIG,0
1652893757,2,"3770 Francis Cir  Alpharetta, GA 30004",22500,22500,5,2024.4,2023.2,UC,W,BUILDING 200,,34.1483829,-84.24221263,20,ATLANT,0
1652893676,2,"County Road 212   Forney, TX 75126",512223,512223,7,2024.3,2022.3,UC,W,--streetnum is:   to   | building name is BUILDING 2,PLATFORM 80 / 20,32.733204,-96.4239678,40,DALLAS,1
1652884372,2,"5250 Old Louisville Rd  Pooler, GA 31322",61875,0,4,2024.2,2023.4,UC,W,BUILDING 44,,32.104946,-81.216688,26,SAVANN,4
1652900812,2,"2857 Basswood Blvd  Fort Worth, TX 76131",89741,89741,5,2024.2,2022.3,UC,W,BUILDING 5,,32.8779568,-97.3199492,32,FORTWO,0
1652876096,2,"43035 John Mosby Hwy  Chantilly, VA 20152",232500,232500,9,2024.3,2022.1,UC,W,ELP DULLES ELION LOGISTICS PARK,,38.9274504,-77.5153074,36,WASHIN,0
1652908089,2,"3000 Garner Park Dr  Clayton, NC 27520",225000,225000,2,2024.4,2023.4,UC,W,BUILDING 5,,35.6789234,-78.5254972,32,RALEIG,0
1652797244,2,"1 Principio Pky  North East, MD 21901",297000,297000,5,2025.1,2024.1,UC,W,BUILDING I,PRINCIPIO BUSINESS PARK,39.5890285,-76.0103315,0,BALTIM,0
1652886563,2,"4000 Chamblee Rd  Oakwood, GA 30566",224599,224599,8,2024.2,2022.1,UC,W,OAKWOOD COMMERCE CENTER,,34.2181149,-83.8876659,32,ATLANT,0
1652887792,2,"121 Technology Park   Allen, TX 75013",115208,115208,4,2024.2,2023.2,UC,W,#ERROR!,121 TECHNOLOGY PARK,33.1471288,-96.6669573,32,DALLAS,1
1652906681,2,"Powell Rd  Gibsonton, FL 33534",138380,138380,1,2024.3,2024.1,UC,W,TAMPA REGIONAL INDUSTRIAL - BLDG 200,"3202 POWELL ROAD, GIBSONTON, FL",27.80446,-82.37675,32,TAMPA,0
1652903137,2,"Logistics Dr  Black Creek, GA 31308",2057067,0,1,2025.1,2024.1,UC,W,#ERROR!,INTERSTATE WEST,32.1837697,-81.4434237,0,SAVANN,0
1652871554,2,"74 And Jeff Gordon   Pittsboro, IN 46167",55000,21000,10,2024.3,2023.4,UC,W,#ERROR!,,39.8741405,-86.4700649,22,INDIAN,2
1652927208,2,"801 Chelsea Rd  Aberdeen, MD 21001",259200,259200,1,2024.4,2023.4,UC,W,,,39.4471867,-76.210367,32,BALTIM,0
1652878481,2,"4500 S Hardin Blvd  McKinney, TX 75070",116513,0,4,2025.1,2023.4,UC,W,BUILDING 4,,33.15420331,-96.66351025,28,DALLAS,1
1652921812,2,"3296 Burk Dr  Chamblee, GA 30341",174800,0,1,2024.3,2023.2,UC,W,,,33.88625,-84.3002,0,ATLANT,0
1652915196,2,"TX SH 180 & Boswell Dr  Fort Worth, TX 76112",76150,76150,3,2024.3,2023.3,UC,W,#ERROR!,,32.7326549,-97.1963037,32,FORTWO,0
1652889912,2,"3225 Valley View Ln  DFW Airport, TX 75261",499876,0,6,2024.3,2023.3,UC,W,BUILDING 3,DFW LOGISTICS HUB,32.84899988,-97.02196054,40,DALLAS,4
1652893973,2,"Central Port Logistics Ctr  Savannah, GA 31405",1456000,1456000,4,2025.1,2023.2,UC,W,--streetnum is:   to   | building name is BUILDING 1,,32.0149708,-81.1850211,40,SAVANN,0
1652906855,2,"1960 Lakepointe Dr  Lewisville, TX 75057",44606,44606,1,2025.1,2024.1,UC,W,BUILDING C,,33.0145572,-96.9760146,28,DALLAS,0
1652908405,2,"3520 us 287   Decatur, TX 76234",60000,0,2,2024.2,2023.3,UC,W,#ERROR!,,33.1993285,-97.5658606,0,FORTWO,1
1652907885,2,"9209 Palm River Rd  Tampa, FL 33619",91440,0,3,2024.3,2023.2,UC,W,EAST TAMPA COMMERCE CENTER BLDG 100,,27.9420867,-82.3506333,32,TAMPA,4
1652839824,2,"600 Bloomingdale Rd  Bloomingdale, GA 31302",235280,235280,3,2024.2,2023.2,UC,W,LOGISTICS 16 - BLDG 200,LOGISTICS 16 @ OTTAWA FARMS,32.115913,-81.298102,32,SAVANN,0
1652886730,2,"Bledsoe   Newnan, GA 30265",12000,12000,1,2025.1,2024.1,UC,W,#ERROR!,,33.4013003,-84.7547656,28,ATLANT,2
1652914562,2,"800 Weldon Rd  Palmetto, GA 30268",300000,300000,3,2024.2,2023.1,UC,W,HQ INDUSTRIAL,,33.50071093,-84.64910264,36,ATLANT,0
1652924289,2,"2650 S Great Southwest Pky  Grand Prairie, TX 75052",150806,150806,1,2024.4,2024.1,UC,W,BUILDING 1,PARK SOUTH GSW,32.708603,-97.045713,32,FORTWO,0
1652894196,2,"12791 International Pky  Dallas, TX 75228",183764,183764,7,2024.2,2022.4,UC,W,BUILDING B,PERIMETER PARK,32.8574271,-96.6592954,32,DALLAS,0
1652921021,2,"7216 Cross Park Dr  North Charleston, SC 29418",25000,25000,2,2024.4,2023.4,UC,W,,,32.914495,-80.071186,0,CHRLTN,2
1652828587,2,"1325 Highway 42   Mcdonough, GA 30252",1219826,1219826,1,2025.1,2024.1,UC,W,BUILDING A,PNK PARK SOUTHERN GATEWAY,33.4095545,-84.139746,41,ATLANT,1
1652886035,2,"1231 NW Main St  Lees Summit, MO 64086",253000,253000,7,2024.3,2022.2,UC,W,LEE'S SUMMIT COMMERCE CENTER - BUILDING C,,38.9358052,-94.3850379,32,KANSAS,1
1652876295,2,"566 Omni Industrial Blvd  Summerville, SC 29485",606880,0,9,2024.3,2022.1,UC,W,BUILDING 4,,33.0337873,-80.2014857,36,CHRLTN,0
1652912627,2,"130 Business Parkway   Hudson Oaks, TX 76087",26990,19990,3,2024.2,2023.3,UC,W,,,32.75864,-97.7073026,17,FORTWO,4
1652878260,2,"1400 Zoo Pky  Jacksonville, FL 32218",547200,0,8,2024.2,2022.2,UC,W,BUILDING C,,30.425388,-81.616574,36,JACKSO,0
1652873927,2,"10301 Philadelphia Rd  White Marsh, MD 21162",167900,167900,2,2024.3,2023.4,UC,W,BLDG A-PHASE I,WHITE MARSH INTERCHANGE PARK,39.372482,-76.440786,32,BALTIM,2
1652924780,2,"7410 NW 79th Ave  Medley, FL 33166",100234,100234,1,2024.3,2023.3,UC,W,BUILDING B,PALMETTO STATION,25.84115484,-80.32545606,36,MIAMI,4
1652851601,2,"409 Power House Dr  Mckinney, TX 75071",12321,0,4,2024.2,2023.1,UC,W,,,33.217093,-96.611622,0,DALLAS,4
1652908865,2,"2154 Texas 121   Melissa, TX 75454",44000,44000,2,2025.1,2023.4,UC,W,,,33.27749756,-96.57103035,24,DALLAS,0
1652918594,2,"6901 N Interstate 35   Denton, TX 76207",129721,129721,1,2025.1,2024.1,UC,W,BUILDING 2,,33.2729777,-97.1804559,32,DALLAS,0
1652896181,2,"8733 N Stemmons Fwy  Dallas, TX 75247",82773,77915,7,2024.2,2022.1,UC,W,TRINITY INDUSTRIAL PARK,,32.8321946,-96.87491232,0,DALLAS,0
1652925116,2,"Business Park Dr  Hudson Oaks, TX 76087",24248,24248,1,2024.2,2024.1,UC,W,#ERROR!,,32.7589287,-97.7072168,24,FORTWO,4
1652889910,2,"3075 Valley View Ln  DFW Airport, TX 75261",337862,337862,7,2024.3,2023.2,UC,W,BUILDING 2,DFW LOGISTICS HUB,32.84824797,-97.02200413,36,DALLAS,4
1652920674,2,"100 Wes Walker Memorial Dr  Ball Ground, GA 30107",30000,30000,2,2024.4,2023.4,UC,W,,,34.303726,-84.424874,22,ATLANT,0
1652918836,2,"4576 J D Mouser Pky  Alvarado, TX 76009",16800,16800,2,2024.3,2023.1,UC,W,,,32.5212778,-97.1557453,0,FORTWO,0
1652918148,2,"2100 Mustang Ct  Southlake, TX 76092",120840,120840,2,2025.1,2023.4,UC,W,BUILDING 4,CONSTELLATION MUSTANG CROSSING,32.9219245,-97.1173396,28,FORTWO,3
1652889939,2,"Westside Commerce Center   Pooler, GA 31322",141594,141594,1,2024.2,2023.4,UC,W,#ERROR!,,32.1047899,-81.2252122,32,SAVANN,0
1652911695,2,"3120 E Interstate 20   Hudson Oaks, TX 76087",39000,39000,2,2024.4,2023.4,UC,W,BUILDING 1,3120 E I-20,32.751188,-97.7019431,0,FORTWO,0
1652886558,2,"5050 Stonewall Tell Rd  Atlanta, GA 30349",172000,172000,8,2024.2,2022.2,UC,W,STONEWALL LOGISTICS CENTER,,33.6174968,-84.5577774,32,ATLANT,4
1652904456,2,"91 Linville Way  Franklin, IN 46131",32000,0,5,2024.4,2022.4,UC,W,,,39.508035,-86.052236,0,INDIAN,0
1652909365,2,"2080 Redbud Blvd  McKinney, TX 75069",32488,0,1,2025.1,2024.1,UC,W,,,33.2217284,-96.626856,24,DALLAS,4
1652923517,2,"3314 Lakeview Pky  Rowlett, TX 75088",68640,68640,1,2025.1,2024.1,UC,W,,,32.90706,-96.572922,32,DALLAS,4
1652913823,2,"3405 International Golf Pky  Saint Augustine, FL 32092",193600,193600,1,2025.1,2024.1,UC,W,--streetnum is: 3405B to   | building name is BUILDING 1,IGP/95 LOGISTICS PARK,29.9676148,-81.4793745,32,JACKSO,0
1652894658,2,"175 Candler Rd  McDonough, GA 30253",498160,498160,6,2024.4,2022.3,UC,W,STOCKBRIDGE LOGISTICS CENTER,,33.4811766,-84.1807392,40,ATLANT,0
1652905108,2,"9895 Cumberland Pointe Blvd  Noblesville, IN 46060",56400,56400,2,2024.2,2023.4,UC,W,,,40.014824,-85.993016,28,INDIAN,0
1652866161,2,"350 Old Bay Ln  Havre De Grace, MD 21078",157500,0,1,2024.2,2023.4,UC,W,,,39.531491,-76.106259,32,BALTIM,4
1652887793,2,"121 Technology Park   Allen, TX 75013",128123,128123,4,2024.2,2023.2,UC,W,#ERROR!,121 TECHNOLOGY PARK,33.1468765,-96.6659494,32,DALLAS,1
1652902902,2,"Hwy 21   Rincon, GA 31326",473760,473760,2,2024.4,2023.2,UC,W,COASTAL TRADE CENTER - BUILDING 5,,32.3190698,-81.2553689,0,SAVANN,0
1652909797,2,"9822 E 400 N   Brownsburg, IN 46112",245803,245803,2,2025.1,2023.2,UC,W,--streetnum is:   to   | building name is PARK 74 COMMERCE CENTER BUILDING B,,39.8227416,-86.3487469,32,INDIAN,0
1652897085,2,"301 Cypress Meadow Dr  Pooler, GA 31322",669760,0,7,2024.2,2022.3,UC,W,LIVE OAKS LOGISTICS CENTER BUILDING C,,32.0731084,-81.2093506,40,SAVANN,0
1652827744,2,"4121 W 91st Pl  Hialeah, FL 33018",226698,0,7,2024.3,2022.2,UC,W,BEACON LOGISTICS PARK - BUILDING D,BEACON LOGISTICS PARK,25.9056968,-80.3672445,36,MIAMI,4
1652822818,2,"Bridgeport Blvd  Newnan, GA 30263",1201200,1201200,5,2024.3,2023.3,UC,W,#ERROR!,BRIDGEPORT,33.3129194,-84.7847283,40,ATLANT,4
1652912888,2,"Park 33 @ Lehigh Valley E Rd  Easton, PA 18064",249520,249520,1,2024.3,2023.4,UC,W,--streetnum is:   to   | building name is BUILDING 1,,40.7350798,-75.2808941,36,ALLENT,1
1652897664,2,"ICC-35   Denton, TX 76207",366926,366926,6,2024.3,2023.2,UC,W,--streetnum is:   to   | building name is BUILDING 2,ICC-35,33.258326,-97.181522,36,DALLAS,0
1652915472,2,"301 Southwestern Blvd  Coppell, TX 75019",109744,109744,2,2024.4,2023.4,UC,W,BUILDING I,PARK WEST CROSSING - PHASE III,32.94812686,-97.00010828,0,DALLAS,0
1652892468,2,"3221 Lyndon B Johnson Fwy  Dallas, TX 75234",59970,0,2,2025.1,2023.4,UC,W,,,32.9143053,-96.8695946,32,DALLAS,3
1652884369,2,"5250 Old Louisville Rd  Pooler, GA 31322",55000,0,5,2024.3,2023.2,UC,W,BUILDING 42,,32.104946,-81.216688,26,SAVANN,4
1652897300,2,"Oak Fair Blvd   Tampa, FL 33610",27450,0,7,2024.3,2022.3,UC,W,#ERROR!,,27.9872852,-82.3590914,32,TAMPA,0
1652920773,2,"1215 Imeson Park Blvd  Jacksonville, FL 32218",267280,267280,1,2025.1,2024.1,UC,W,,,30.4146961,-81.6274161,32,JACKSO,0
1652926997,2,"3331 FM 1173   Denton, TX 76207",269600,269600,1,2025.1,2024.1,UC,W,#ERROR!,,33.25967356,-97.18807613,32,DALLAS,0
1652815197,2,"9211 Old Pike Way  Upper Marlboro, MD 20772",116500,116500,5,2024.2,2023.2,EX,W,,9211 OLD PIKE WAY,38.8102852,-76.8444658,28,WASHIN,1
1652797143,2,"105 Distribution Dr  Mcdonough, GA 30252",262000,0,5,2024.3,2023.1,UC,W,,KING MILL DISTRIBUTION PARK,33.40066,-84.13795,0,ATLANT,1
1652905866,2,"875 Gateway Dr  Apex, NC 27523",176571,0,5,2024.4,2023.1,UC,W,BUILDING 2,APEX GATEWAY,35.7481235,-78.9478581,32,RALEIG,0
855885704,2,"11982 Wilton Meadows Ct  Manassas, VA 20109",32102,32102,6,2025.1,2023.1,UC,W,,VIRGINIA MEADOWS IND PARK,38.768611,-77.554611,23,WASHIN,4
1652907141,2,"3351 S Wyatt Rd  Midlothian, TX 76065",10000,0,3,2024.2,2023.1,UC,W,,,32.463683,-97.04179,0,DALLAS,1
1652891475,2,"4905 Catron Dr  Dallas, TX 75227",16500,0,1,2024.3,2024.1,UC,W,,,32.782475,-96.675639,0,DALLAS,4
1652847991,2,"352 Raco Pky  Pendergrass, GA 30567",1017900,1017900,4,2024.4,2023.4,UC,W,BUILDING 2,JACKSON 85 NORTH BUSINESS PARK,34.19757833,-83.60231,40,ATLANT,4
1652875460,2,"Industrial Bypass & W 167 St  New Century, KS 66031",333382,200566,3,2024.4,2023.3,UC,W,#ERROR!,NEW CENTURY COMMERCE CENTER,38.8320041,-94.8733314,36,KANSAS,1
1652915228,2,"TX SH 180 & Boswell Dr  Fort Worth, TX 76112",121740,121740,1,2024.3,2023.3,UC,W,#ERROR!,,32.7300031,-97.1925397,32,FORTWO,0
1652882615,2,"15770 S Theden St  Olathe, KS 66062",140264,140264,8,2024.2,2022.2,UC,W,GREAT PLAINS COMMERCE CENTER - BUILDING C,,38.841235,-94.8308785,32,KANSAS,1
1652918934,2,"2701 S State Highway 121 Busines   Lewisville, TX 75067",50125,50125,2,2024.3,2023.3,UC,W,EDMONDS 121 INTERCHANGE,,32.9945173,-97.004756,28,DALLAS,0
1652913670,2,"4205 Glenview Dr  Haltom City, TX 76117",10000,10000,3,2024.2,2023.3,UC,W,,GLENVIEW INDUSTRIAL PARK,32.83176531,-97.27284152,24,FORTWO,1
1652927275,2,"20375 185th ter  Spring Hill, KS 66083",12000,12000,1,2024.2,2023.4,UC,W,,,38.7915418,-94.8211768,24,KANSAS,0
1652916401,2,"5823 N Graham Rd  Whiteland, IN 46184",175172,175172,3,2024.2,2022.1,UC,W,MOHR LOGISTICS PARK BLDG 3C,,39.56209636,-86.05693227,32,INDIAN,1
1652912224,2,"515 International Golf Pky  St Augustine, FL 32095",15000,7500,3,2024.3,2023.2,UC,W,,,30.0075535,-81.4043966,0,JACKSO,0
1652903662,2,"8100 NW 74th St  Medley, FL 33166",100234,100234,5,2024.2,2022.1,UC,W,PALMETTO 74 BUILDING B,PALMETTO 74,25.840408,-80.328905,36,MIAMI,2
1652839153,2,"6596 Columbia Park Dr  Jacksonville, FL 32258",10000,0,7,2024.2,2022.4,UC,W,3,COLUMBIA PARK,30.15825503,-81.53961083,21,JACKSO,0
1652919393,2,"304 FM 1830   Argyle, TX 76226",36000,36000,2,2024.2,2023.4,UC,W,1,ARGYLE BUSINESS PARK,33.1141168,-97.1357422,19,DALLAS,0
1652927562,2,"22810 Quicksilver Dr  Sterling, VA 20166",29193,29193,1,2024.3,2023.4,UC,W,,,38.985282,-77.473558,24,WASHIN,0
1652896157,2,"700 Williams Dr  Marietta, GA 30066",16800,0,2,2024.3,2023.4,UC,W,,,33.991865,-84.5453317,20,ATLANT,0
1652892437,2,"6455 Best Friend Rd  Norcross, GA 30071",453600,0,6,2024.4,2023.2,UC,W,,,33.917799,-84.226359,40,ATLANT,4
1652861059,2,"CR 550 S & SR 267   Whitestown, IN 46075",550090,0,1,2024.3,2023.3,UC,W,--streetnum is:   to   | building name is PROLOGIS PARK 267 - OPTION 2 - BUILDING 1,,39.96493,-86.4008476,0,INDIAN,0
1652912613,2,"17001 Ditch Rd   Westfield, IN 46074",40000,0,3,2024.2,2023.1,UC,W,#ERROR!,,40.033371,-86.181111,0,INDIAN,1
1652927057,2,"10671 University Blvd  Manassas, VA 20110",77948,77948,1,2025.1,2024.1,UC,W,,,38.74887,-77.516049,32,WASHIN,0
1652896732,2,"1224 Sage Hill Pky  Forney, TX 75126",473397,473397,7,2024.4,2023.2,UC,W,BUILDING 2,GATEWAY CROSSING LOGISTICS PARK,32.7285156,-96.3902671,36,DALLAS,1
1652893190,2,"5424-5402Hangar Court   Tampa, FL 33634",101202,101202,4,2024.2,2023.2,UC,W,,,27.9986261,-82.5353071,32,TAMPA,4
1652883483,2,"2680 Gateway Centre Pky  Saint Petersburg, FL 33716",78531,78531,6,2024.2,2022.4,UC,W,BLDG A,,27.8551704,-82.6664357,32,TAMPA,4
1652899028,2,"5081 E 100  N Franklin, IN 46131",1119696,1119696,5,2025.1,2022.4,UC,W,,I-65 SOUTH COMMERCE PARK,39.496055,-86.0062665,40,INDIAN,1
1652901404,2,"1801 N Masch Branch Rd  Denton, TX 76207",40320,40320,6,2024.2,2023.2,UC,W,BUILDING 2,M380 BUSINESS PARK,33.234917,-97.197974,0,DALLAS,1
1652909340,2,"1060 Douglas Hills Rd  Lithia Springs, GA 30122",489416,489416,2,2024.3,2023.3,UC,W,BUILDING 100,DOUGLAS HILLS LOGISTIC CENTER,33.7597381,-84.612681,36,ATLANT,0
1652874697,2,"501 W Risinger Rd  Fort Worth, TX 76140",655600,655600,4,2025.1,2023.2,EX,W,BUILDING 2,RISINGER SOUTH,32.61409229,-97.33450268,40,FORTWO,0
1652916003,2,"5640 Eden Rd  Kennedale, TX 76060",10000,0,1,2024.3,2024.1,UC,W,,,32.632815,-97.198121,0,FORTWO,0
1652902373,2,"11124 Goodnight Ln  Dallas, TX 75229",289564,289564,3,2024.2,2023.2,UC,W,PHASE IV- BUILDING A,CORE35,32.88519121,-96.90188191,32,DALLAS,0
1652812403,2,"21451 NW 47th Ave  Miami Gardens, FL 33055",794230,794230,8,2024.4,2022.2,UC,W,"PHASE II, BUILDING A",BRIDGE POINT COMMERCE CENTER,25.967665,-80.286877,36,MIAMI,0
1652896537,2,"357 Ballenger Center Dr  Frederick, MD 21703",51940,51940,5,2024.2,2023.1,UC,W,BUILDING D,BALLENGER CREEK BUSINESS CENTER,39.3966633,-77.4263333,0,WASHIN,4
1652901827,2,"1900 Fulenwider Rd  Gainesville, GA 30507",334670,334670,4,2024.4,2023.2,UC,W,GAINESVILLE 85 BUSINESS CENTER- BUILDING 100,,34.2132757,-83.7796652,36,ATLANT,0
1652923111,2,"2470 Dean Forest Rd  Garden City, GA 31408",170945,0,1,2024.2,2022.2,UC,W,,,32.11801542,-81.19061029,0,SAVANN,0
1652876759,2,"10301 Philadelphia Rd  White Marsh, MD 21162",34000,34000,2,2024.3,2023.4,UC,W,BLDG H-PHASE I,,39.372482,-76.440786,20,BALTIM,2
1652915991,2,"115 Parkway Dr  Rincon, GA 31326",165600,165600,1,2024.2,2023.1,UC,W,B,,32.243382,-81.198219,0,SAVANN,0
1652903154,2,"Jimmy Deloach Parkway   Bloomingdale, GA 31302",360000,0,2,2024.2,2023.2,UC,W,#ERROR!,,32.1178293,-81.3167103,36,SAVANN,0
1652915019,2,"401 S Enterprise Blvd  Lebanon, IN 46052",100000,0,3,2024.2,2023.2,UC,W,,,40.0328993,-86.4848472,0,INDIAN,2
1652894195,2,"12790 International Pky  Dallas, TX 75228",113864,113864,7,2024.2,2022.3,UC,W,BUILDING A,PERIMETER PARK,32.8583914,-96.6593303,32,DALLAS,0
1652868352,2,"17701 Spring Mill Rd  Westfield, IN 46074",140000,0,4,2024.2,2023.2,UC,W,,,40.0450178,-86.1641504,0,INDIAN,2
1652899850,2,"2003 MacArthur Blvd  Grand Prairie, TX 75050",602355,0,6,2025.1,2022.2,UC,W,,,32.774425,-96.964676,40,DALLAS,0
1652927474,2,"4560 Excel Pky  Addison, TX 75001",101364,101364,1,2025.1,2024.1,UC,W,,,32.9781,-96.835735,32,DALLAS,4
1652892512,2,"1039 Cassville White Rd  White, GA 30184",155820,155820,7,2024.2,2022.3,UC,W,BUILDING 1,,34.2721412,-84.80108675,32,ATLANT,0
1652890514,2,"401 W Geer St  Durham, NC 27701",30000,0,8,2024.2,2022.2,UC,W,,,36.003491,-78.900447,0,RALEIG,2
1652891637,2,"3550 New York Ave  Arlington, TX 76014",201650,201650,6,2024.2,2023.2,UC,W,BUILDING 4,PROLOGIS INTERCHANGE 20,32.6851262,-97.08444,36,FORTWO,0
1652895175,2,"3275 Park of Commerce Blvd  Homestead, FL 33035",79626,79626,1,2024.4,2023.4,UC,W,BUILDING 2,GATEWAY SOUTH DADE,25.4610341,-80.4325012,0,MIAMI,0
1652887795,2,"121 Technology Park   Allen, TX 75013",148542,148542,2,2024.4,2023.4,UC,W,#ERROR!,121 TECHNOLOGY PARK,33.1466004,-96.6666558,32,DALLAS,1
1652909357,2,"1021 Douglas Hills Rd  Lithia Springs, GA 30122",104848,104848,2,2024.4,2023.4,UC,W,BUILDING 300,DOUGLAS HILLS LOGISTIC CENTER,33.75912783,-84.61527083,32,ATLANT,2
1652915183,2,"International Dr  Franklin, IN 46131",30000,0,3,2024.2,2022.1,UC,W,#ERROR!,,39.519266,-86.064909,0,INDIAN,1
1652901709,2,"1 Industrial Access Rd  Douglasville, GA 30134",257920,257920,5,2025.1,2023.1,UC,W,ACCESS WEST LOGISTICS CENTER,,33.7753029,-84.7174038,32,ATLANT,0
1652912650,2,"7800 American Way  Anderson, IN 46013",10000,0,3,2024.2,2023.1,UC,W,,,40.03544441,-85.64553808,0,INDIAN,0
1652878930,2,"11301 NW 97th Ave  Medley, FL 33178",174400,174400,1,2024.4,2024.1,UC,W,,,25.8737634,-80.3544515,32,MIAMI,4
1652890370,2,"3798 Hopson Rd  Morrisville, NC 27560",120000,0,8,2024.4,2023.1,UC,W,,,35.8727648,-78.8691425,0,RALEIG,2
1652918332,2,"350 Logistics Pky  Jackson, GA 30233",250141,250141,2,2024.4,2023.4,UC,W,RIVERPARK 2,,33.2666422,-84.0925711,32,ATLANT,0
1652906685,2,"Logistics Pky  Jackson, GA 30233",825000,825000,1,2025.1,2024.1,UC,W,--streetnum is:   to   | building name is RIVER PARK BLDG 10,,33.273577,-84.092198,40,ATLANT,1
1652869734,2,"115 Parkway Dr  Rincon, GA 31326",151200,151200,6,2024.2,2023.4,UC,W,A,,32.243673,-81.1983175,32,SAVANN,0
1652912961,2,"61 Toto Creek Park Rd  Dawsonville, GA 30534",11700,11700,3,2024.2,2023.1,UC,W,,,34.395426,-83.987561,30,ATLANT,1
1652897494,2,"1500 N Mayhill Rd  Denton, TX 76208",91745,91745,2,2024.2,2023.3,UC,W,MAYHILL 380 BUSINESS PARK - BUILDING 2,,33.21355139,-97.08342433,0,DALLAS,3
1652911371,2,"601 W Pleasant Run Rd  Wilmer, TX 75172",420643,420643,2,2024.3,2023.3,UC,W,INLAND LOGISTICS CENTER,,32.60389063,-96.70464292,36,DALLAS,0
1652847222,2,"400 Belle Hill Rd  Elkton, MD 21921",50400,0,4,2024.4,2023.2,UC,W,2,FREE STATE BUSINESS PARK,39.61834835,-75.79754378,0,BALTIM,0
1652897777,2,"3700 NW 107 Ave  Doral, FL 33172",276359,276359,2,2024.3,2023.4,UC,W,BRIDGE POINT DORAL BUILDING 5,BRIDGE POINT DORAL,25.8089718,-80.3718502,36,MIAMI,0
1652894407,2,"7995 Bowen Rd  Palmetto, GA 30268",563193,563193,7,2024.2,2022.3,UC,W,ROOSEVELT LOGISTICS CENTER,,33.52913,-84.65139,40,ATLANT,1
1652823809,2,"1010 NW 72nd St  Miami, FL 33150",85376,85376,6,2024.2,2022.3,UC,W,,,25.8401,-80.21421,30,MIAMI,0
1652918588,2,"6901 N Interstate 35   Denton, TX 76207",114138,114138,1,2025.1,2024.1,UC,W,BUILDING 1,,33.2725628,-97.1791258,32,DALLAS,0
1652892883,2,"201 S Clay Rd  Sunnyvale, TX 75182",316297,316297,7,2024.4,2023.1,UC,W,LANDMARK SUNNYVALE BUILDING 2,,32.7752721,-96.5638122,36,DALLAS,1
1652847325,2,"S Fulton Pkwy   Union City, GA 30349",800000,800000,8,2024.3,2022.2,UC,W,--streetnum is:   to   | building name is MAC V - BUILDING 2,MAJESTIC AIRPORT CENTER IV,33.6149975,-84.5677008,40,ATLANT,1
1652882878,2,"9695 NW 174th St  Hialeah, FL 33018",71708,19920,6,2024.2,2022.4,EX,W,BUILDING 1,MIAMI MIDWAY PARK,25.9279935,-80.3552049,32,MIAMI,0
1652900811,2,"2741 Basswood Blvd  Saginaw, TX 76131",130750,130750,4,2024.2,2023.2,UC,W,BUILDING 4,,32.8778849,-97.32135,32,FORTWO,0
1652887425,2,"1400 Senoia   Tyrone, GA 30290",30000,17500,1,2025.1,2024.1,UC,W,74 S BUSINESS PARK - 100,74 SOUTH BUSINESS PARK,33.493502,-84.580774,24,ATLANT,0
1652918765,2,"2125 Bardin Rd  Grand Prairie, TX 75052",31414,31414,2,2024.2,2023.1,UC,W,,,32.6693349,-97.0338769,24,DALLAS,0
1652926531,2,"SEC Loop 820 & N Beach St  Haltom City, TX 76137",221054,221054,1,2025.1,2024.1,UC,W,--streetnum is:   to   | building name is MERCANTILE 820 LOGISTICS PARK - BUILDING 4,MERCANTILE 820 LOGISTICS PARK,32.836012,-97.286078,36,FORTWO,0
1652907907,2,"1000 Woodley Rd  Aberdeen, MD 21001",100000,0,3,2024.2,2022.4,UC,W,THE CONTAINER STORE,,39.485565,-76.178271,0,BALTIM,4
1652927445,2,"1205 S County Line Rd  Plant City, FL 33566",35000,0,1,2025.1,2024.1,UC,W,1,,28.003172,-82.056357,0,TAMPA,0
1652920650,2,"1175 Airport Pky  Greenwood, IN 46143",33800,33800,2,2024.4,2023.4,UC,W,,,39.6318998,-86.0929983,24,INDIAN,4
1652891933,2,"842 Metromont Rd  Hiram, GA 30141",27500,27500,4,2024.4,2023.2,UC,W,,,33.8774938,-84.7446269,22,ATLANT,4
1652924778,2,"7400 NW 79th Ave  Medley, FL 33166",147278,147278,1,2024.3,2023.3,UC,W,BUILDING A,PALMETTO STATION,25.841679,-80.325001,36,MIAMI,3
1652902375,2,"11110 Goodnight Ln  Dallas, TX 75229",142966,0,3,2024.2,2023.2,UC,W,PHASE IV- BUILDING B,CORE35,32.88411145,-96.90187432,32,DALLAS,0
1652925335,2,"8004 Ridge Road   New Port Richey, FL 34653",40000,0,1,2024.2,2023.3,UC,W,#ERROR!,,28.279818,-82.682235,0,TAMPA,2
1652877626,2,"SWC Pleasant St. & Union Rd  Noblesville, IN 46060",23427,23427,7,2024.2,2022.2,UC,W,--streetnum is:   to   | building name is BUILDING 1,,40.0406237,-85.9792336,0,INDIAN,0
1652892432,2,"4851 E Loop 820 South   Fort Worth, TX 76119",238289,238289,3,2024.3,2023.3,UC,W,OAK CREEK DISTRIBUTION CENTER,,32.694382,-97.233905,32,FORTWO,0
1652924378,2,"3770 Francis Cir  Alpharetta, GA 30004",16250,0,1,2024.4,2023.2,UC,W,BUILDING 500,,34.146663,-84.244045,0,ATLANT,0
1652927585,2,"333 Old Bay Ln  Havre de Grace, MD 21078",48219,0,1,2024.3,2023.4,UC,W,,,39.5325869,-76.1054231,0,BALTIM,2
1652908038,2,"4010 W 104th St  Hialeah, FL 33018",506215,0,3,2024.3,2023.3,UC,W,38,PROLOGIS COUNTYLINE,25.9272441,-80.3594106,24,MIAMI,1
1652911119,2,"9524-9532Station Blvd  Plainfield, IN 46168",263922,263922,3,2024.4,2023.2,UC,W,TERMINUS AT HOBBS STATION - BLDG 2,,39.7039419,-86.3942136,32,INDIAN,0
1652810765,2,"2250 114th St  Grand Prairie, TX 75050",41923,0,5,2024.2,2023.1,UC,W,,,32.7887,-97.03775,24,FORTWO,0
1652882875,2,"9535 NW 174th St  Hialeah, FL 33018",181051,181051,6,2024.2,2022.4,EX,W,BUILDING 4,,25.928708,-80.3530088,32,MIAMI,3
1652918843,2,"4584 J D Mouser Pky  Alvarado, TX 76009",12000,12000,2,2024.3,2023.1,UC,W,,,32.5212099,-97.15692,0,FORTWO,0
1652923065,2,"2917 Chesser Boyer Rd  Fort Worth, TX 76111",156866,156866,1,2024.4,2024.1,UC,W,CHESSER 35 BUILDING B,,32.804245,-97.302801,32,FORTWO,0
1652896624,2,"130 Dorchester Village Rd  Midway, GA 31320",276062,276062,2,2024.4,2023.3,UC,W,BUILDING 3,,31.774425,-81.3673817,36,SAVANN,0
1652904905,2,"501 W Wildlife Parkway   Grand Prairie, TX 75050",305640,305640,5,2024.3,2023.1,UC,W,WILDLIFE 15,WILDLIFE COMMERCE PARK,32.776864,-97.007645,36,FORTWO,1
1652874230,2,"8 Camp Hall Rd  Ridgeville, SC 29472",275271,275271,4,2025.1,2023.1,UC,W,CAMP HALL CAMPUS 8 BUILDING B,CAROLINA TRADEPORT,33.1504353,-80.2949213,32,CHRLTN,1
1652915232,2,"125 Southwestern Blvd  Coppell, TX 75019",24620,24620,1,2024.2,2023.4,UC,W,BUILDING K,PARK WEST CROSSING - PHASE III,32.94769154,-96.99431687,0,DALLAS,0
1652893226,2,"8402 NW 90th Street   Medley, FL 33166",198108,135707,3,2024.2,2023.2,EX,W,"FIRST PARK MIAMI, BUILDING 12",FIRST PARK MIAMI,25.85458529,-80.33371816,36,MIAMI,3
1652887966,2,"1400 Senoia Rd  Tyrone, GA 30290",30000,30000,1,2025.1,2024.1,UC,W,74 S BUSINESS PARK - 200,,33.493502,-84.580774,24,ATLANT,0
1652909449,2,"4553 J D Mouser Pky  Alvarado, TX 76009",13800,7200,3,2024.2,2023.1,UC,W,,,32.51874554,-97.15456682,32,FORTWO,4
1652914737,2,"7605 Factory Shoals SW   Austell, GA 30168",117036,117036,2,2024.4,2023.4,UC,W,FACTORY SHOALS DISTRIBUTION CENTER,,33.7665455,-84.592286,32,ATLANT,0
1652891630,2,"3651 Allen Ave  Arlington, TX 76014",173243,173243,6,2024.2,2023.2,UC,W,BUILDING 3,PROLOGIS NEW YORK AVE,32.685557,-97.0826494,36,FORTWO,2
1652901444,2,"Interstate 35 & Bear Cree Rd  Lancaster, TX 75146",276880,276880,1,2024.3,2024.1,UC,W,--streetnum is:   to   | building name is C5LC AT I-35 BUILDING B,,32.5611626,-96.8214461,36,DALLAS,0
1652924617,2,"US HWY 64 W   Staley, NC 27355",150000,0,1,2024.3,2023.3,UC,W,,,35.7470398,-79.5345753,0,RALEIG,0
1652924375,2,"3770 Francis Cir  Alpharetta, GA 30004",15000,0,1,2024.4,2023.2,UC,W,BUILDING 300,,34.146663,-84.244045,0,ATLANT,0
1652909452,2,"4549 J D Mouser Pky  Alvarado, TX 76009",13800,13800,3,2024.3,2023.1,UC,W,,,32.5207139,-97.1560565,20,FORTWO,0
1652860462,2,"Queens Court West   Upper Marlboro, MD 20774",301392,301392,4,2026.1,2024.1,UC,W,--streetnum is:   to   | building name is BUILDING 11 -  NATIONAL CAPITAL BUSINESS PARK,NATIONAL CAPITAL BUSINESS PARK,38.8739873,-76.7329563,36,WASHIN,0
1652885001,2,"21301 NW 47th Ave  Miami Gardens, FL 33055",794230,397063,8,2025.1,2022.2,UC,W,"PHASE II, BUILDING B",BRIDGE POINT COMMERCE CENTER,25.9684502,-80.2792625,36,MIAMI,0
1652897775,2,"3605 NW 112 Ave  Doral, FL 33172",425472,425472,2,2025.1,2023.4,UC,W,BRIDGE POINT DORAL BUILDING 2,BRIDGE POINT DORAL,25.8089838,-80.3741862,36,MIAMI,0
1652881829,2,"Louie Pepper Dr  Clinton, MD 20735",108000,0,6,2024.2,2022.4,UC,W,--streetnum is:   to   | building name is BUILDING 1,,38.7786245,-76.8658466,32,WASHIN,0
1652876296,2,"10835 Hazelbrand Rd  Covington, GA 30014",500000,500000,6,2024.2,2022.4,UC,W,EAST ATLANTA LOGISTICS CENTER II,,33.6233174,-83.8143792,36,ATLANT,0
1652894900,2,"14800 Blue Mound Rd  Fort Worth, TX 76177",1076459,0,7,2024.4,2023.2,UC,W,ALLIANCE WESTPORT 25,,33.0025506,-97.3402553,40,FORTWO,0
1652903659,2,"8100 NW 74th St  Medley, FL 33166",147278,105171,5,2024.2,2022.1,UC,W,PALMETTO 74 BUILDING A,PALMETTO 74,25.840408,-80.328905,36,MIAMI,3
1652908543,2,"54 Distribution Dr  Port Wentworth, GA 31407",332450,332450,3,2024.2,2023.1,UC,W,B,CROSSGATE INDUSTRIAL PARK,32.153951,-81.172821,36,SAVANN,0
1652877922,2,"4334 N 100 E Pky  Brownsburg, IN 46112",169000,0,5,2024.3,2023.1,UC,W,BUILDING 4,BROWNSBURG LOGISTICS PARK,39.8281661,-86.3481784,32,INDIAN,1
1652913313,2,"7501 Factory Shoals Rd  Austell, GA 30168",115650,115650,1,2025.1,2024.1,UC,W,20W FACTORY SHOALS COMMERCE CENTER,,33.76996889,-84.5890832,32,ATLANT,4
1652912215,2,"585 International Golf Pky  St Augustine, FL 32095",24000,4500,3,2024.3,2023.2,UC,W,BLDG 1,,30.0069458,-81.4048096,0,JACKSO,0
1652887788,2,"121 Technology Park   Allen, TX 75013",33116,33116,4,2024.2,2023.2,UC,W,#ERROR!,121 TECHNOLOGY PARK,33.1475221,-96.6669868,28,DALLAS,1
1652878259,2,"1511 Zoo Pky  Jacksonville, FL 32218",1003200,0,8,2024.3,2022.2,UC,W,BUILDING E,,30.425388,-81.616574,40,JACKSO,0
1652904759,2,"9209 Palm River Rd  Tampa, FL 33619",85500,85500,3,2024.2,2023.3,UC,W,EAST TAMPA COMMERCE CENTER BLDG 200,EAST TAMPA COMMERCE CENTER,27.9439308,-82.351874,32,TAMPA,0
1652901960,2,"1950 Fulenwider Rd  Gainesville, GA 30507",250990,250990,4,2024.4,2023.2,UC,W,GAINESVILLE 85 BUSINESS CENTER- BUILDING 200,,34.2131228,-83.7771262,32,ATLANT,0
1652924372,2,"3770 Francis Cir  Alpharetta, GA 30004",32500,0,1,2024.4,2023.2,UC,W,BUILDING 100,,34.146663,-84.244045,20,ATLANT,0
856318126,2,"Furnace Rd  Lorton, VA 22079",88322,88322,5,2024.3,2023.1,UC,W,#ERROR!,GUNSTON DISTRIBUTION CENTER,38.6779645,-77.2357263,32,WASHIN,0
1652893067,2,"15826 Gateway Dr  Frisco, TX 75035",76480,76480,3,2024.2,2023.3,UC,W,STAR COMMERCE CENTER V,,33.2084276,-96.8120732,28,DALLAS,4
1652914259,2,"E COUNTY ROAD 300 N Hwy  New Castle, IN 47362",150000,0,3,2024.2,2022.4,UC,W,#ERROR!,,39.9778319,-85.3826385,0,INDIAN,1
1652926524,2,"SEC Loop of 820 & N Beach   Haltom City, TX 76137",136473,136473,1,2025.1,2024.1,UC,W,--streetnum is:   to   | building name is MERCANTILE 820 LOGISTICS PARK - BUILDING 2,MERCANTILE 820 LOGISTICS PARK,32.8359535,-97.2880526,32,FORTWO,0
1652900990,2,"2212 SE Loop 820   Fort Worth, TX 76112",11250,11250,3,2024.2,2023.2,UC,W,B,,32.6607717,-97.274505,0,FORTWO,4
1652886053,2,"4255 Cantrell Rd NW Acworth, GA 30101",26000,20000,7,2024.2,2023.4,UC,W,,,34.06148,-84.653499,0,ATLANT,0
1652905347,2,"3155 N Highway 161   Grand Prairie, TX 75050",52536,52536,2,2024.3,2023.4,UC,W,BUILDING B,COMMERCE CENTER 161,32.801436,-97.016799,0,FORTWO,4
1652904663,2,"7057 Weber Blvd  Ladson, SC 29456",130000,0,5,2024.4,2023.3,UC,W,,,32.95723845,-80.11180999,0,CHRLTN,4
1652927322,2,"Lysander Ln  Mebane, NC 27302",40000,0,1,2024.2,2023.3,UC,W,,,36.0772541,-79.2350759,0,RALEIG,0
1652905863,2,"895 Gateway Dr  Apex, NC 27502",138079,138079,5,2024.4,2023.1,UC,W,BUILDING 1,APEX GATEWAY,35.7436235,-78.9488373,32,RALEIG,0
1652897492,2,"1500 N Mayhill Rd  Denton, TX 76208",91745,91745,3,2024.3,2023.3,UC,W,MAYHILL 380 BUSINESS PARK - BUILDING 1,,33.21355139,-97.08342433,0,DALLAS,3
1652908068,2,"38201 W 187th St  Gardner, KS 66030",20000,0,1,2024.4,2024.1,UC,W,,,38.7898902,-94.9476775,0,KANSAS,0
1652866361,2,"Leora & ST HWY 121   Lewisville, TX 75067",23400,0,4,2025.1,2023.3,UC,W,--streetnum is:   to   | building name is BUILDING 4,,33.0580896,-96.9102844,0,DALLAS,2
1652918145,2,"2100 Mustang Ct  Southlake, TX 76092",188132,188132,2,2025.1,2023.4,UC,W,BUILDING 2,CONSTELLATION MUSTANG CROSSING,32.9210172,-97.1188819,32,FORTWO,2
1652919242,2,"2501 Melody Hills Ln  Fort Worth, TX 76137",68554,0,2,2024.3,2023.3,UC,W,,,32.8331546,-97.3112894,0,FORTWO,2
1652926528,2,"SEC Loop 820 & N Beach St   Haltom City, TX 76117",160586,160586,1,2025.1,2024.1,UC,W,--streetnum is:   to   | building name is MERCANTILE 820 LOGISTICS PARK - BUILDING 3,MERCANTILE 820 LOGISTICS PARK,32.8382208,-97.2860735,32,FORTWO,0
1652887969,2,"1400 Senoia Rd  Tyrone, GA 30290",30000,30000,1,2025.1,2024.1,UC,W,74 S BUSINESS PARK - 300,,33.493502,-84.580774,24,ATLANT,0
1652893674,2,"County Road 212   Forney, TX 75126",430436,430436,7,2024.2,2022.3,UC,W,--streetnum is:   to   | building name is BUILDING 1,PLATFORM 80 / 20,32.7343446,-96.4225887,36,DALLAS,1
1652844747,2,"3861 Grant Rd  Ellenwood, GA 30294",10920,0,5,2024.4,2023.1,UC,W,,,33.64561,-84.30362,0,ATLANT,2
1652865885,2,"2105 Buford Hwy  Buford, GA 30518",494804,494804,11,2024.2,2022.1,UC,W,DOWNTOWN BUFORD LOGISTICS CENTER,,34.109816,-83.9989669,36,ATLANT,0
1652894970,2,"500 West Dennis Ave  Olathe, KS 66061",16000,0,7,2024.2,2022.3,UC,W,,,38.86917387,-94.81266454,0,KANSAS,4
1652892616,2,"3101 NW Centre   Fort Worth, TX 76135",221444,0,7,2024.2,2022.3,UC,W,BUILDING A,FORT WEST COMMERCE CENTER,32.8043632,-97.4344194,36,FORTWO,2
1652917325,2,"1303 Industrial Dr  Royse City, TX 75189",10000,10000,2,2024.2,2023.4,UC,W,,,32.9851225,-96.3048778,0,DALLAS,2
1652926522,2,"SEC Loop 820 & N Beach St   Haltom City, TX 76137",136468,136468,1,2025.1,2024.1,UC,W,--streetnum is:   to   | building name is MERCANTILE 820 LOGISTICS PARK - BUILDING 1,MERCANTILE 820 LOGISTICS PARK,32.8358943,-97.2891925,32,FORTWO,0
1652914963,2,"5640 Eden Rd  Kennedale, TX 76060",10000,10000,1,2024.2,2024.1,UC,W,,,32.632815,-97.198121,0,FORTWO,0
1652905445,2,"1  Pky  Jacksonville, FL 32226",198000,198000,1,2025.1,2023.4,UC,W,--streetnum is: Bldg. 1 to   | building name is,,30.4102478,-81.6318584,0,JACKSO,0
1652891783,2,"2516 Logistics   Indianapolis, IN 46234",332240,332240,5,2024.3,2022.4,UC,W,AVON LANDINGS COMMERCE PARK,AVON LANDINGS COMMERCE PARK,39.7965082,-86.352,32,INDIAN,0
1652823299,2,"1100 Bold Ruler Rd  Justin, TX 76247",1042000,0,6,2024.3,2022.4,UC,W,BLDG 7,INTERMODAL LOGISTICS CENTER,33.0136959,-97.3341759,40,FORTWO,0
1652900994,2,"2232 SE Loop 820   Fort Worth, TX 76140",53780,53780,3,2024.2,2023.2,UC,W,D,,32.6607717,-97.274505,0,FORTWO,4
1652887677,2,"1401 E Lookout Dr  Richardson, TX 75082",102273,102273,7,2024.3,2022.3,UC,W,BUILDING A,,32.9862717,-96.6961283,28,DALLAS,1
1652863265,2,"2305 Edgewood Ave N Jacksonville, FL 32254",154800,154800,2,2024.4,2023.4,UC,W,W. 12TH AND EDGEWOOD,W. 12TH AND EDGEWOOD,30.3527633,-81.7299833,32,JACKSO,4
1652918829,2,"4573 J D Mouser Pky  Alvarado, TX 76009",16000,16000,2,2024.2,2023.1,UC,W,,,32.5201564,-97.1561828,0,FORTWO,0
1652887799,2,"121 Technology Park   Allen, TX 75013",85383,85383,2,2024.4,2023.4,UC,W,#ERROR!,121 TECHNOLOGY PARK,33.1465689,-96.6662791,32,DALLAS,1
1652915194,2,"TX SH 180 & Boswell Dr  Fort Worth, TX 76112",116541,116541,3,2024.3,2023.3,UC,W,#ERROR!,,32.7325911,-97.1976841,0,FORTWO,0
1652901405,2,"1801 N Masch Branch Rd  Denton, TX 76207",51840,51840,6,2024.2,2023.2,UC,W,BUILDING 1,M380 BUSINESS PARK,33.234917,-97.197974,0,DALLAS,4
1652891217,2,"2510 Whiteland   Whiteland, IN 46184",431460,431460,4,2024.2,2022.4,UC,W,I-65 WHITELAND,,39.55056687,-86.05488946,40,INDIAN,0
1652895806,2,"SEC Lancaster Hutchins Rd Rd  Lancaster, TX 75134",177320,177320,2,2024.3,2023.4,UC,W,#ERROR!,WINTERGREEN LOGISTICS CENTER,32.6149835,-96.7336921,32,DALLAS,1
1652906893,2,"Kroger Drive   Forney, TX 75126",100000,0,3,2024.2,2023.2,UC,W,#ERROR!,,32.7471537,-96.4420613,40,DALLAS,1
1652915198,2,"TX SH 180 & Boswell Dr  Fort Worth, TX 76112",202242,202242,3,2024.3,2023.3,UC,W,--streetnum is:   to   | building name is C,,32.7326017,-97.1949056,36,FORTWO,0
1652903914,2,"5830 Graham Rd  Whiteland, IN 46184",341512,341512,3,2024.2,2022.4,UC,W,BUILDING 3B,MOHR LOGISTICS PARK,39.56219624,-86.05704771,36,INDIAN,1
1652907044,2,"765 E GA 16 Highway   Newnan, GA 30263",271111,271111,2,2024.3,2023.3,UC,W,--streetnum is: 765-775 to   | building name is COWETA COMMERCE CENTER,,33.332142,-84.756489,32,ATLANT,0
1652912221,2,"545 International Golf Pky  St Augustine, FL 32095",24000,4500,3,2024.3,2023.2,UC,W,BLDG 2,,30.0074847,-81.4045307,0,JACKSO,0
1652881306,2,"State Highway 121   Melissa, TX 75454",47450,3000,2,2024.3,2023.4,UC,W,#ERROR!,,33.3033692,-96.5304281,16,DALLAS,1
1652900840,2,"4600 S Hardin Blvd  McKinney, TX 75070",76433,0,5,2024.2,2023.1,EX,W,BUILDING 1,MCKINNEY 121,33.1523794,-96.6658438,0,DALLAS,1
1652897804,2,"1525 Airport Blvd  Mesquite, TX 75181",342196,342196,4,2024.4,2023.2,EX,W,BUILDING 4,,32.7512773,-96.53358877,36,DALLAS,4
1652907619,2,"4831 W Northgate Dr  Irving, TX 75062",65960,65960,2,2024.3,2023.4,UC,W,,,32.85713722,-97.01746386,35,DALLAS,1
1652869287,2,"4925 E Renfro St  Alvarado, TX 76009",47500,0,8,2024.2,2023.1,UC,W,,,32.4746854,-97.2387887,0,FORTWO,0
1652881109,2,"US 136 and Northfield Dr  Brownsburg, IN 46112",239157,105057,6,2024.3,2022.1,UC,W,#ERROR!,,39.8514883,-86.4184832,32,INDIAN,1
1652851823,2,"2801 S Airfield Dr  Dallas, TX 75203",202492,0,10,2024.4,2021.4,UC,W,BUILDING 4,,32.8654799,-97.0248723,32,DALLAS,0
1652918834,2,"4556 J D Mouser Pky  Alvarado, TX 76009",10000,10000,2,2024.3,2023.1,UC,W,,,32.5206741,-97.1565796,0,FORTWO,0
1652913825,2,"3405 International Golf Pky  Saint Augustine, FL 32092",205700,205700,1,2024.3,2023.4,UC,W,--streetnum is: 3405B to   | building name is BUILDING 2,IGP/95 LOGISTICS PARK,29.967343,-81.4807142,32,JACKSO,0
1652927331,2,"500 Buckhorn Rd  Mebane, NC 27302",80000,0,1,2024.2,2023.1,UC,W,,,36.07723,-79.22518,0,RALEIG,4
1652909835,2,"1015 Dry Pond Rd  Jefferson, GA 30549",497094,497094,2,2024.3,2023.4,UC,W,JEFFERSON 85 LOGISTICS CENTER,,34.1870826,-83.5801327,40,ATLANT,0
1652887791,2,"121 Technology Park   Allen, TX 75013",134850,134850,2,2024.4,2023.4,UC,W,--streetnum is:   to   | building name is BUILDING C,121 TECHNOLOGY PARK,33.1471998,-96.6675789,32,DALLAS,1
1652923078,2,"6850 Cedar Ranch dr  Dallas, TX 75241",59970,59970,1,2024.2,2023.4,UC,W,,,32.6533336,-96.7641291,32,DALLAS,0
1652874907,2,"Laird Rd And Bill Carruth Pky  Hiram, GA 30141",367360,0,2,2024.3,2023.2,UC,W,#ERROR!,SILVER COMET INDUSTRIAL PARK,33.8557475,-84.7713759,32,ATLANT,0
1652839828,2,"610 Bloomingdale Rd  Bloomingdale, GA 31302",306340,306340,3,2024.2,2023.1,UC,W,LOGISTICS 16 - BLDG 250,LOGISTICS 16 @ OTTAWA FARMS,32.115913,-81.298102,36,SAVANN,0
1652920804,2,"17265 Harger Ct  Noblesville, IN 46060",27900,21900,2,2024.4,2023.4,UC,W,,,40.039949,-85.984713,22,INDIAN,0
1652884453,2,"300 W Wintergreen Rd  Hutchins, TX 75141",560030,560030,3,2024.4,2023.3,UC,W,,,32.626482,-96.705454,40,DALLAS,0
1652914147,2,"6533 McEver Rd  Flowery Branch, GA 30542",221590,221590,2,2024.2,2023.2,UC,W,BUFORD TRADE CENTER,,34.165075,-83.958056,0,ATLANT,0
1652880824,2,"196th Street And US-31   Westfield, IN 46074",55000,55000,4,2024.2,2023.2,UC,W,--streetnum is:   to   | building name is NORTHPOINT SITE 3,,40.0840867,-86.1122503,24,INDIAN,0
1652905443,2,"2  Pky  Jacksonville, FL 32226",198000,198000,2,2024.4,2023.4,UC,W,--streetnum is: Bldg. 2 to   | building name is,,30.4087166,-81.6338836,0,JACKSO,0
1652903636,2,"735 Autonomous Dr  Ridgeville, SC 29472",545000,545000,4,2024.4,2023.2,UC,W,CAMP HALL COMMERCE PARK- CAMPUS 5,,33.1439311,-80.2816458,40,CHRLTN,0
1652909360,2,"1001 Douglas Hills Rd  Lithia Springs, GA 30122",110788,110788,2,2024.4,2023.4,UC,W,BUILDING 400,DOUGLAS HILLS LOGISTIC CENTER,33.75886602,-84.61110536,32,ATLANT,2
1652899160,2,"8838 E    Avon, IN 46123",1008891,1008891,5,2024.4,2022.4,UC,W,BUILDING 1,,39.76330751,-86.36514471,40,INDIAN,3
1652908410,2,"Chalice Drive   Plano, TX 75024",20000,0,3,2024.3,2023.1,UC,W,#ERROR!,,33.0592366,-96.813021,28,DALLAS,0
1652901733,2,"540 S Town East Blvd  Mesquite, TX 75149",193800,193800,5,2024.2,2023.2,UC,W,TOWN EAST JUNCTION 540,,32.77574276,-96.64649895,36,DALLAS,2
1652907116,2,"2305 Edgewood Ave N Jacksonville, FL 32254",96037,96037,2,2024.4,2023.4,UC,W,W. 12TH AND EDGEWOOD,W. 12TH AND EDGEWOOD,30.3527633,-81.7299833,32,JACKSO,0
1652918143,2,"2100 Mustang Ct  Southlake, TX 76092",134401,134401,2,2025.1,2023.4,UC,W,BUILDING 1,,32.9219764,-97.1188739,32,FORTWO,3
1652896733,2,"1228 Sage Hill Pky  Forney, TX 75126",264940,264940,7,2024.3,2023.2,UC,W,BUILDING 3,GATEWAY CROSSING LOGISTICS PARK,32.7256115,-96.3935098,36,DALLAS,0
1652907350,2,"13817 US Highway 380  W Krum, TX 76249",18000,0,3,2024.4,2022.4,UC,W,,,33.234246,-97.285016,18,FORTWO,3
1652872727,2,"Tramore Pointe Pky  Austell, GA 30106",47500,0,3,2024.2,2023.3,UC,W,,,33.8596949,-84.6231074,0,ATLANT,4
1652888086,2,"328 Clay Rd   Sunnyvale, TX 75182",182369,182369,4,2024.3,2023.2,UC,W,SUNNYVALE CROSSING,,32.768974,-96.557529,36,DALLAS,0
856328172,2,"350 Raco Pky  Pendergrass, GA 30567",538450,538450,5,2024.4,2023.3,UC,W,BUILDING 1,JACKSON 85 NORTH BUSINESS PARK,34.19590378,-83.60250092,40,ATLANT,4
1652902387,2,"SW 142nd Ave & 336th St  Homestead, FL 33035",69681,1989,4,2024.4,2023.4,UC,W,#ERROR!,,25.4563272,-80.4203894,20,MIAMI,2
1652901399,2,"1801 N Masch Branch Rd  Denton, TX 76207",43680,43680,5,2024.2,2023.2,UC,W,BUILDING 3,M380 BUSINESS PARK,33.234917,-97.197974,0,DALLAS,0
1652895441,2,"2355 Imeson Rd  Jacksonville, FL 32220",12000,12000,5,2024.2,2023.3,UC,W,,,30.3556292,-81.7725615,18,JACKSO,0
1652851306,2,"Route 33   Bethlehem, PA 18045",150000,150000,3,2024.4,2023.1,UC,W,--streetnum is:   to   | building name is BUILDING 3,PENN CENTER 33,40.670453,-75.297923,0,ALLENT,1
1652908587,2,"9020 State Ave  Kansas City, KS 66112",150000,0,3,2024.2,NULL,UC,W,,,39.117614,-94.793373,0,KANSAS,1
1652888177,2,"2413 Peppermill Dr  Glen Burnie, MD 21061",106700,106700,3,2024.2,2023.3,UC,W,,,39.15953394,-76.67239589,32,BALTIM,3
1652888480,2,"159th St and South Elm Rd   Olathe, KS 66062",140090,0,7,2024.2,2022.2,UC,W,--streetnum is:   to   | building name is GREAT PLAINS COMMERCE CENTER - BUILDING C,,38.8411702,-94.8290438,0,KANSAS,4
1652860707,2,"1001 Trade Center Pky  Rincon, GA 31326",733200,0,4,2024.3,2023.2,UC,W,,GEORGIA INTERNATIONAL TRADE CENTER,32.235782,-81.201183,40,SAVANN,4
1652915237,2,"221 Southwestern Blvd  Coppell, TX 75019",95071,95071,2,2024.4,2023.4,UC,W,BUILDING J,PARK WEST CROSSING - PHASE III,32.94817584,-96.99700582,0,DALLAS,0
1652891290,2,"201 GA-293   Cartersville, GA 30120",127180,127180,8,2024.2,2022.2,UC,W,NORTHWEST LOGISTICS CENTER - BUILDING 1,,34.15262359,-84.78455049,32,ATLANT,0
1652883519,2,"4043 Hanoverville Rd  Bethlehem, PA 18020",301826,301826,5,2024.3,2023.1,UC,W,"LEHIGH VALLEY TRADE CENTER II, BUILDING E",,40.682124,-75.360991,36,ALLENT,0
1652878130,2,"1384 Hanover Rd  Hanover, MD 21076",122688,122688,3,2024.2,2023.3,UC,W,HANOVER LOGISTICS CENTER,,39.1891417,-76.7171733,32,BALTIM,0
1652898035,2,"1442 Marietta Rd W Atlanta, GA 30318",220863,0,2,2025.1,2023.4,UC,W,AMAZON DISTRIBUTION FACILITY,,33.78805838,-84.43598255,0,ATLANT,4
1652901454,2,"2500 S Little Blue Pky  Independence, MO 64057",287207,268000,3,2024.2,2022.4,UC,W,EASTGATE COMMERCE CENTER BUILDING A2,,39.0706219,-94.3288998,36,KANSAS,0
1652891362,2,"Prosper Trl  Prosper, TX 75078",25170,20170,5,2024.2,2022.4,UC,W,#ERROR!,,33.2466637,-96.8100777,0,DALLAS,3
1652901466,2,"Little Blue Pky  Independence, MO 64057",287183,227249,5,2024.2,2022.4,UC,W,#ERROR!,,39.0720296,-94.3259011,36,KANSAS,0
1652918149,2,"2100 Mustang Ct  Southlake, TX 76092",102957,102957,2,2025.1,2023.4,UC,W,BUILDING 3,CONSTELLATION MUSTANG CROSSING,32.9210689,-97.1174147,28,FORTWO,2
1652922588,2,"4601 Franchise st  North Charleston, SC 29418",635328,635328,1,2025.1,2024.2,UC,W,,,32.9122233,-80.0913667,36,CHRLTN,4
1652894999,2,"2843 Mitchell   Allentown, PA 18103",70000,20000,1,2024.4,2024.1,UC,W,,,40.5599085,-75.4809493,35,ALLENT,2
1652911273,2,"5490 Highway 42   Ellenwood, GA 30294",265775,265775,1,2025.1,2024.1,UC,W,CLAYTON TECHNOLOGY CENTER,,33.605696,-84.299777,36,ATLANT,1
1652882877,2,"9675 NW 174th St  Hialeah, FL 33018",71708,44278,6,2024.2,2022.4,EX,W,BUILDING 2,MIAMI MIDWAY PARK,25.9287901,-80.3553687,32,MIAMI,0
1652908542,2,"54 Distribution Dr  Port Wentworth, GA 31407",106250,106250,3,2024.3,2023.1,UC,W,A,CROSSGATE INDUSTRIAL PARK,32.153951,-81.172821,36,SAVANN,0
1652918461,2,"2119 Oracal Pkwy   Ellabell, GA 31308",760000,364800,2,2024.4,2023.4,UC,W,,,32.1739455,-81.4425695,42,SAVANN,1
1652927350,2,"1160 Shetter Ave  Jacksonville Beach, FL 32250",18125,18125,1,2024.4,2024.1,UC,W,,,30.2864,-81.40064,24,JACKSO,4
1652909348,2,"1050 Douglas Hills Rd  Lithia Springs, GA 30122",147727,147727,2,2024.3,2023.3,UC,W,BUILDING 200,DOUGLAS HILLS LOGISTIC CENTER,33.7591801,-84.6114691,32,ATLANT,0
1652918830,2,"4577 J D Mouser Pky  Alvarado, TX 76009",16000,12000,2,2024.3,2023.1,UC,W,,,32.5204097,-97.1564054,0,FORTWO,0
1652915515,2,"2107 Kansas City   Olathe, KS 66061",32000,2000,3,2024.2,2023.3,UC,W,CONTRACTORS GARAGE 8,,38.90570392,-94.78225732,17,KANSAS,4
1652906868,2,"600 E Wintergreen Rd  Lancaster, TX 75134",799529,0,3,2025.1,2023.2,UC,W,BUILDING B,,32.616186,-96.748764,0,DALLAS,1
1652879833,2,"3235 Dahlonega Hwy  Cumming, GA 30040",45000,0,10,2024.2,2021.4,UC,W,,,34.270391,-84.103117,0,ATLANT,2
1652915437,2,"7310 Corporate Center Dr  Hanover, MD 21076",155508,155508,1,2025.1,2024.1,UC,W,,,39.18295969,-76.69691944,36,BALTIM,0
1652924566,2,"1645 Industry Dr  Indianapolis, IN 46219",25300,25300,1,2024.2,2024.1,UC,W,,,39.7907187,-86.0489703,24,INDIAN,0
1652898895,2,"13209 Memorial Hwy  Tampa, FL 33635",172620,172620,4,2024.2,2023.2,UC,W,BAYTOP COMMERCE CENTER,,28.0319825,-82.6384835,32,TAMPA,0
1652851313,2,"Route 33   Bethlehem, PA 18045",175533,175533,3,2024.4,2023.1,UC,W,--streetnum is:   to   | building name is BUILDING 1,PENN CENTER 33,40.6706399,-75.2972181,0,ALLENT,1
1652921594,2,"14101 NW 57th Ave  Opa Locka, FL 33054",87268,87268,2,2024.2,2023.1,UC,W,RED ROAD COMMERCE CENTER,,25.9021866,-80.2920384,32,MIAMI,0
1652901443,2,"Interstate 35 & Bear Cree   Lancaster, TX 75146",327380,327380,1,2024.3,2024.1,UC,W,--streetnum is:   to   | building name is C5LC AT I35 BUILDING A,,32.5612214,-96.8209419,36,DALLAS,0
1652907866,2,"4800 Sterilite Dr  Ennis, TX 75119",135000,0,3,2024.3,2023.1,UC,W,FRESHPET PHASE 2,,32.29366759,-96.59290809,0,DALLAS,1
1652915546,2,"3257 W 1000  N Fortville, IN 46040",33000,33000,1,2024.2,2024.1,UC,W,,,39.92884447,-85.86727608,23,INDIAN,0
1652848236,2,"14775 62nd St N Clearwater, FL 33760",122160,122160,3,2024.2,2023.2,UC,W,HIGHPOINT COMMERCE CENTER,,27.906379,-82.719424,36,TAMPA,1
1652879483,2,"5018 E Washington St  Tampa, FL 33619",30000,0,6,2024.2,2022.4,UC,W,TARMAK USA,,27.948683,-82.39999,0,TAMPA,2
1652837638,2,"2000 N Corrington Ave  Kansas City, MO 64120",225592,225592,1,2025.1,2024.1,UC,W,BUILDING 3,,39.1426867,-94.496419,36,KANSAS,2